store_id,store_name,address,city,state,zip_code,phone_number,lat,long,status,radius_km
5603127,Acme Markets,1 University Plaza,Newark,DE,19702,(302) 738-9509,39.66692205,-75.67192879,red,30.0
5603048,Acme Markets,100 E Black Horse Pike,Audubon,NJ,08106,(856) 547-3938,39.89292466,-75.08937763,blue,30.0
5603019,Acme Markets,100 Grove Lane,Newark,DE,19711,(302) 286-0425,39.682622,-75.735397,blue,30.0
5603000,Acme Markets,100 Route 22,Goldens Bridge,NY,10526,(914) 232-7610,41.29327664,-73.67595389,red,30.0
5603111,Acme Markets,100 Suburban Dr,Newark,DE,19711,(302) 453-2330,39.66800768,-75.77571452,blue,30.0
5602995,Acme Markets,100 Triangle Center,Yorktown Heights,NY,10598,(914) 455-3810,41.27741705,-73.77930678,blue,30.0
5603016,Acme Markets,1001 South St,Philadelphia,PA,19147,(215) 238-1108,39.94295064,-75.15885355,blue,30.0
5603039,Acme Markets,101 Big Elk Mall,Elkton,MD,21921,(410) 398-4925,39.60166896,-75.82616569,blue,30.0
5603062,Acme Markets,101 Byers Dr,Glen Mills,PA,19342,(610) 459-2759,39.8842122,-75.52789483,red,30.0
5603010,Acme Markets,103 Knollwood Rd,White Plains,NY,10607,(914) 682-1711,41.03872014,-73.80671578,red,30.0
5603063,Acme Markets,105 E Street Rd,Feasterville Trevose,PA,19053,(215) 942-4891,40.14716262,-74.99962807,red,30.0
5602982,Acme Markets,1060 Raritan Rd,Clark,NJ,07066,(732) 340-0056,40.62839726,-74.31601966,red,30.0
5603040,Acme Markets,1095 W Baltimore Pike,Media,PA,19063,(610) 891-0407,39.9176735,-75.42957125,blue,30.0
5603131,Acme Markets,11 Court House South Dennis Rd,Cape May Court House,NJ,08210,(609) 463-9106,39.08924075,-74.82199324,blue,30.0
5603002,Acme Markets,12 Cedar St,Bronxville,NY,10708,(914) 793-1001,40.93900191,-73.8339641,blue,30.0
5603003,Acme Markets,1201 High Ridge Rd,Stamford,CT,06905,(203) 321-0429,41.1098457,-73.54629457,blue,30.0
5603059,Acme Markets,121 E City Ave,Bala Cynwyd,PA,19004,(610) 667-7021,40.00390621,-75.22387214,blue,30.0
5602966,Acme Markets,123 E Main St,Denville,NJ,07834,(973) 586-2215,40.88903284,-74.48022349,blue,30.0
5603132,Acme Markets,124 Morton Ave,Folsom,PA,19033,(610) 237-3800,39.88488162,-75.32819565,blue,30.0
5602967,Acme Markets,125 18th St,Jersey City,NJ,07310,(201) 418-0580,40.73313793,-74.03743839,blue,30.0
5602962,Acme Markets,125 Franklin Turnpike,Mahwah,NJ,07430,(201) 529-9775,41.09906515,-74.14464762,blue,30.0
5603036,Acme Markets,1260 Springfield Ave,New Providence,NJ,07974,(908) 286-1725,40.7048671,-74.40407541,red,30.0
5603008,Acme Markets,1261 E Putnam Ave,Riverside,CT,06878,(203) 637-0188,41.04282478,-73.57720166,blue,30.0
5603121,Acme Markets,128 Lantana Dr,Hockessin,DE,19707,(302) 234-9000,39.77364392,-75.70854262,blue,30.0
5603012,Acme Markets,13 North Ave,Pleasant Valley,NY,12569,(845) 635-4420,41.74497858,-73.82604945,red,30.0
5603105,Acme Markets,1305 W Chester Pike,Havertown,PA,19083,(610) 446-1191,39.97373056,-75.32064289,blue,30.0
5603128,Acme Markets,1308 Centerville Rd,Wilmington,DE,19808,(302) 994-3660,39.73408681,-75.62344283,blue,30.0
5603108,Acme Markets,1336 Bristol Pike Suite 100,Bensalem,PA,19020,(215) 638-8190,40.07295422,-74.96674063,blue,30.0
5602961,Acme Markets,136 Lake St,Midland Park,NJ,07432,(201) 493-7050,40.983116,-74.1403605,blue,30.0
5603030,Acme Markets,1366 E Main St,Shrub Oak,NY,10588,(914) 528-3620,41.32765967,-73.83672265,blue,30.0
5603100,Acme Markets,1400 E Passyunk Ave,Philadelphia,PA,19147,(215) 467-2221,39.93230251,-75.16229734,blue,30.0
5603112,Acme Markets,1401 N Dupont St,Wilmington,DE,19806,(302) 658-0575,39.75720972,-75.5637957,blue,30.0
5603116,Acme Markets,146 Fox Hunt Dr,Bear,DE,19701,(302) 836-9380,39.60657031,-75.71211666,blue,30.0
5603126,Acme Markets,15 Avalon Blvd,Cape May Court House,NJ,08210,(609) 463-1995,39.12739946,-74.77849871,red,30.0
5602999,Acme Markets,1511 Ny Route 22,Brewster,NY,10509,(845) 940-0575,41.41976179,-73.57851896,blue,30.0
5602984,Acme Markets,152 Route 94,Blairstown,NJ,07825,(908) 362-1790,40.9837044,-74.99698861,red,30.0
5603006,Acme Markets,160 W Putnam Ave,Greenwich,CT,06830,(203) 622-2944,41.02663949,-73.63093117,blue,30.0
5603134,Acme Markets,1619 Center Square Rd,Swedesboro,NJ,08085,(856) 467-8936,39.75575458,-75.35389395,blue,30.0
5603090,Acme Markets,1640 Bethlehem Pike,Flourtown,PA,19031,(215) 836-2560,40.10700571,-75.21156784,blue,30.0
5603097,Acme Markets,175 Route 70,Medford,NJ,08055,(609) 953-0006,39.9036157,-74.83501704,red,30.0
5603017,Acme Markets,177 Washington Valley Rd,Warren,NJ,07059,(732) 764-3800,40.61486435,-74.4975804,blue,30.0
5602988,Acme Markets,18 Broadway St,Browns Mills,NJ,08015,(609) 735-1605,39.975772,-74.581338,blue,30.0
5603041,Acme Markets,180 W Girard Ave,Philadelphia,PA,19123,(215) 574-2922,39.96893483,-75.13894016,red,30.0
5603031,Acme Markets,1812 Marsh Rd,Wilmington,DE,19810,(302) 529-8520,39.80449773,-75.50512319,blue,30.0
5603061,Acme Markets,1825 Limekiln Pike,Dresher,PA,19025,(215) 643-3992,40.1306026,-75.16580684,blue,30.0
5603018,Acme Markets,18578 Coastal Hwy Unit 13,Rehoboth Beach,DE,19971,(302) 644-1255,38.73642415,-75.14347555,red,30.0
5603007,Acme Markets,1886 Pleasantville Rd,Briarcliff Manor,NY,10510,(914) 945-7225,41.16393406,-73.847224,blue,30.0
5603129,Acme Markets,1901 Concord Pike,Wilmington,DE,19803,(302) 654-1803,39.78780101,-75.54522693,blue,30.0
5603089,Acme Markets,1901 Johnston St,Philadelphia,PA,19145,(215) 336-4441,39.9169684,-75.1803362,blue,30.0
5602986,Acme Markets,19-21 Ave At Port Imperial,West New York,NJ,07093,(201) 553-1030,40.78213042,-74.00699611,blue,30.0
5603071,Acme Markets,1991 N Sproul Rd,Broomall,PA,19008,(610) 325-2880,39.9817885,-75.3611,blue,30.0
5603045,Acme Markets,20 S Delsea Dr,Clayton,NJ,08312,(856) 881-9884,39.65430158,-75.09183772,red,30.0
5603025,Acme Markets,200 Blair Mill Rd,Horsham,PA,19044,(215) 956-1600,40.18402429,-75.11822831,blue,30.0
5603109,Acme Markets,2007 Route 35,Wall Township,NJ,07719,(732) 282-1630,40.15260801,-74.05716889,red,30.0
5603074,Acme Markets,2087 Shore Rd,Ocean View,NJ,08230,(609) 624-9004,39.20774828,-74.70144488,red,30.0
5603115,Acme Markets,2098 Naamans Rd,Wilmington,DE,19810,(302) 475-4618,39.8237175,-75.50048584,blue,30.0
5603075,Acme Markets,210 W Marlboro Ave,Easton,MD,21601,(410) 822-7073,38.77970584,-76.08284807,blue,30.0
5603056,Acme Markets,2101-41 Cottman Ave,Philadelphia,PA,19149,(215) 728-1010,40.05053847,-75.0616622,blue,30.0
5603122,Acme Markets,212 New Rd,Somers Point,NJ,08244,(609) 653-6853,39.32777014,-74.59551514,blue,30.0
5602964,Acme Markets,2160 Lemoine Ave,Fort Lee,NJ,07024,(201) 944-1145,40.85618937,-73.96509737,blue,30.0
5603093,Acme Markets,23 Levitt Pkwy,Willingboro,NJ,08046,(609) 871-0670,40.05159674,-74.89116691,blue,30.0
5603011,Acme Markets,23 Quaker Ridge Rd,New Rochelle,NY,10804,(914) 636-2133,40.94717494,-73.79404737,blue,30.0
5603060,Acme Markets,2301 Bristol Rd,Bensalem,PA,19020,(215) 757-9995,40.13174807,-74.92259888,blue,30.0
5603033,Acme Markets,236 E Glenwood Ave,Smyrna,DE,19977,(302) 653-9600,39.30611579,-75.61057845,red,30.0
5603034,Acme Markets,2400 Delaware Ave,North Wildwood,NJ,08260,(609) 846-9010,38.99808989,-74.81305612,blue,30.0
1017917081,Acme Markets,25 E Germantown Pike,East Norriton,PA,19401,(610) 313-5500,40.140585,-75.308926,blue,30.0
5603057,Acme Markets,251 N Broadway,Pennsville,NJ,08070,(856) 678-4213,39.66896554,-75.5080086,blue,30.0
5603083,Acme Markets,260 Dunns Mills Rd,Bordentown,NJ,08505,(609) 298-2014,40.13353345,-74.72585717,blue,30.0
5603005,Acme Markets,261 S Ridge St,Rye Brook,NY,10573,(914) 937-2233,41.0004306,-73.6787366,blue,30.0
5603004,Acme Markets,272 Us Route 6,Mahopac,NY,10541,(845) 621-5110,41.34737802,-73.75394516,blue,30.0
5603091,Acme Markets,2761 W Ridge Pike,Norristown,PA,19403,(610) 630-0890,40.14714685,-75.39342044,blue,30.0
5603013,Acme Markets,288 Elm St,New Canaan,CT,06840,(203) 966-0017,41.14485888,-73.50027859,blue,30.0
8262191,Acme Markets,29 Snyder Ave,Philadelphia,PA,19148,(215) 271-5603,39.92316399,-75.14506532,blue,30.0
5603084,Acme Markets,300 S Lenola Rd,Maple Shade,NJ,08052,(856) 778-2028,39.94741743,-74.97100892,blue,30.0
5603123,Acme Markets,301 S Main Rd,Vineland,NJ,08360,(856) 507-1101,39.479669,-74.998642,blue,30.0
5602998,Acme Markets,3071 E Main St,Mohegan Lake,NY,10547,(914) 526-6688,41.30857827,-73.87150061,blue,30.0
5603014,Acme Markets,309 S 5th St,Philadelphia,PA,19106,(215) 413-9725,39.9443077,-75.14998172,blue,30.0
5602963,Acme Markets,3101 Route 22,Patterson,NY,12563,(845) 878-2044,41.51696513,-73.59283123,blue,30.0
5637759,Acme Markets,315 Ocean St,Cape May,NJ,08204,(609) 884-7217,38.93497156,-74.92142793,blue,30.0
5603064,Acme Markets,3200-09 Red Lion Rd,Philadelphia,PA,19114,(215) 637-4620,40.07939633,-74.99300838,blue,30.0
5602968,Acme Markets,321 Route 440,Jersey City,NJ,07305,(201) 946-2525,40.71053374,-74.1018228,blue,30.0
5603104,Acme Markets,323 Old York Rd,Jenkintown,PA,19046,(215) 886-2911,40.09174608,-75.1250718,blue,30.0
5603082,Acme Markets,3241 Us Hwy 9,Freehold,NJ,07728,(732) 863-6501,40.21939595,-74.26367467,blue,30.0
5603073,Acme Markets,3428 Simpson Ave,Ocean City,NJ,08226,(609) 525-2160,39.25206882,-74.61472873,blue,30.0
5603029,Acme Markets,3500 Route 9,Old Bridge,NJ,08857,(732) 607-9275,40.38274875,-74.30937801,blue,30.0
5603068,Acme Markets,3590 W Chester Pike,Newtown Square,PA,19073,(610) 353-8018,39.98552326,-75.39808463,blue,30.0
5603037,Acme Markets,3845 Bayshore Rd,North Cape May,NJ,08204,(609) 884-1203,38.97464827,-74.9401526,blue,30.0
5602990,Acme Markets,39 Leopard Rd,Paoli,PA,19301,(610) 240-0101,40.03957687,-75.47709296,blue,30.0
5603066,Acme Markets,3951 Lincoln Hwy,Downingtown,PA,19335,(610) 873-8315,39.99791712,-75.74063977,blue,30.0
5602991,Acme Markets,40 Ellis St,Haddonfield,NJ,08033,(856) 429-0177,39.89658275,-75.03081964,blue,30.0
5603098,Acme Markets,400 Simpson Dr,Chester Springs,PA,19425,(610) 458-7004,40.07633654,-75.68937941,blue,30.0
5603053,Acme Markets,400 W Cuthbert Blvd,Westmont,NJ,08108,(856) 858-2226,39.90763546,-75.05870683,blue,30.0
18313954,Acme Markets,4001 Walnut St,Philadelphia,PA,19104,(445) 888-3634,39.95461357,-75.20291193,blue,30.0
5602989,Acme Markets,41 W Main St,Maple Shade,NJ,08052,(856) 779-9891,39.95546646,-75.00370435,blue,30.0
5603087,Acme Markets,415 Egg Harbor Rd,Sewell,NJ,08080,(856) 256-8852,39.74734136,-75.07541169,blue,30.0
5603088,Acme Markets,4236 Harbor Beach Blvd,Brigantine,NJ,08203,(609) 264-0041,39.39380214,-74.39427193,blue,30.0
5603076,Acme Markets,425 Us Hwy 9,Tuckerton,NJ,08087,(609) 296-9303,39.60289208,-74.35466884,red,30.0
5603042,Acme Markets,4400 S Broad St,Trenton,NJ,08620,(609) 888-9898,40.18194816,-74.67311056,blue,30.0
5603125,Acme Markets,4454 Black Horse Pike,Mays Landing,NJ,08330,(609) 625-4710,39.45132369,-74.64813765,blue,30.0
5602969,Acme Markets,45 De Mercurio Dr,Allendale,NJ,07401,(201) 934-3350,41.02895341,-74.12820568,blue,30.0
5602983,Acme Markets,455 Route 23 N,Sussex,NJ,07461,(973) 702-4020,41.20366682,-74.60003659,red,30.0
5603072,Acme Markets,460 E Main St,Middletown,DE,19709,(302) 449-1870,39.44861748,-75.6977137,blue,30.0
5603120,Acme Markets,4720 Limestone Rd,Wilmington,DE,19808,(302) 998-4465,39.73969833,-75.69344949,blue,30.0
5603092,Acme Markets,48 West Rd,Newtown,PA,18940,(215) 504-9585,40.23458098,-74.94516162,blue,30.0
5603067,Acme Markets,480 N Main St,Doylestown,PA,18901,(215) 340-1341,40.3225165,-75.1325557,blue,30.0
5602981,Acme Markets,481 River Rd,Edgewater,NJ,07020,(201) 840-8006,40.8115172,-73.98417592,blue,30.0
5603051,Acme Markets,5 Ortley Plaza,Seaside Heights,NJ,08751,(732) 830-0880,39.95072663,-74.07615507,blue,30.0
5603058,Acme Markets,501 E Evesham Rd,Runnemede,NJ,08078,(856) 939-5403,39.84915992,-75.05927201,blue,30.0
5602980,Acme Markets,503 S Macdade Blvd,Holmes,PA,19043,(610) 586-0557,39.89912242,-75.30159887,blue,30.0
5603044,Acme Markets,507 Prospect Ave,Little Silver,NJ,07739,(732) 345-9910,40.33896,-74.040484,blue,30.0
5602979,Acme Markets,510 Valley Rd,Montclair,NJ,07043,(973) 746-0058,40.83720665,-74.20776336,blue,30.0
5603050,Acme Markets,5100 Wellington Ave,Ventnor City,NJ,08406,(609) 823-0020,39.3517521,-74.477809,blue,30.0
5603052,Acme Markets,515 Berlin-cross Keys Rd,Sicklerville,NJ,08081,(856) 728-3674,39.74472055,-74.99810122,blue,30.0
5603113,Acme Markets,527 E Baltimore Pike,Media,PA,19063,(610) 565-5072,39.91603508,-75.37864147,blue,30.0
5603027,Acme Markets,530 Rt 515 Unit 1,Vernon,NJ,07462,(973) 764-5350,41.1944382,-74.48337988,blue,30.0
5603070,Acme Markets,5300 Baltimore Pike,Clifton Heights,PA,19018,(610) 284-6800,39.9244793,-75.30694485,blue,30.0
5603118,Acme Markets,5300 Park Blvd,Wildwood,NJ,08260,(609) 522-7165,38.9848931,-74.83010944,blue,30.0
5603055,Acme Markets,531 High St,Mount Holly,NJ,08060,(609) 702-1776,40.00727177,-74.79476346,blue,30.0
5602975,Acme Markets,550 Myrtle Ave,Boonton,NJ,07005,(973) 402-4333,40.90865774,-74.39695699,blue,30.0
5603135,Acme Markets,576 River Rd,Fair Haven,NJ,07704,(732) 530-7481,40.36078057,-74.04210877,blue,30.0
5602972,Acme Markets,5774 Berkshire Valley Rd,Oak Ridge,NJ,07438,(973) 697-3005,41.03682942,-74.50259972,blue,30.0
5603024,Acme Markets,5927-59 Ridge Ave,Philadelphia,PA,19128,(215) 487-7180,40.03164391,-75.2108803,blue,30.0
5603069,Acme Markets,601 W Lancaster Ave,Bryn Mawr,PA,19010,(610) 525-1950,40.01852008,-75.31154126,blue,30.0
5603106,Acme Markets,609 E Bay Ave,Manahawkin,NJ,08050,(609) 597-4009,39.68462802,-74.23954753,blue,30.0
5602996,Acme Markets,610 Columbus Ave,Thornwood,NY,10594,(914) 747-0455,41.11319585,-73.77075128,blue,30.0
5603117,Acme Markets,611 Railroad Ave,Centreville,MD,21617,(443) 262-9150,39.03991288,-76.05601609,red,30.0
5602977,Acme Markets,614 Clinton St,Hoboken,NJ,07030,(201) 795-5005,40.74535203,-74.03392822,blue,30.0
5603094,Acme Markets,616 Newman Springs Rd,Lincroft,NJ,07738,(732) 936-0668,40.33190064,-74.1190161,blue,30.0
5603137,Acme Markets,6212 Landis Ave,Sea Isle City,NJ,08243,(609) 263-1510,39.14199204,-74.70361009,blue,30.0
5603085,Acme Markets,631 Mantua Pike,Woodbury,NJ,08096,(856) 848-0224,39.8270559,-75.1612872,blue,30.0
5603021,Acme Markets,643 Conchester Pike,Boothwyn,PA,19061,(610) 859-0001,39.85153866,-75.45121079,blue,30.0
5602997,Acme Markets,660 Mclean Ave,Yonkers,NY,10704,(914) 376-8755,40.9094052,-73.8765469,red,30.0
5603022,Acme Markets,6601 Roosevelt Blvd,Philadelphia,PA,19149,(215) 338-4700,40.0359295,-75.06244071,blue,30.0
5603110,Acme Markets,6640 Oxford Ave,Philadelphia,PA,19111,(215) 725-9310,40.05022048,-75.08682651,blue,30.0
5603054,Acme Markets,6800 New Falls Rd,Levittown,PA,19057,(215) 946-1840,40.15177549,-74.85712525,blue,30.0
5603046,Acme Markets,690 Millbrook Ave,Randolph,NJ,07869,(973) 895-2699,40.82730632,-74.57206551,blue,30.0
5603136,Acme Markets,700 Haddonfield-berlin Rd,Voorhees,NJ,08043,(856) 782-1122,39.8496429,-74.97979149,blue,30.0
5603065,Acme Markets,700 W Lancaster Ave,Wayne,PA,19087,(610) 341-6073,40.04540004,-75.40765163,blue,30.0
5602973,Acme Markets,7010 Germantown Ave,Philadelphia,PA,19119,(215) 247-1160,40.05664535,-75.1895749,blue,30.0
5603124,Acme Markets,711 Washington Ave,Chestertown,MD,21620,(410) 778-5641,39.22550024,-76.06883071,blue,30.0
5602993,Acme Markets,75 Mayhill St,Saddle Brook,NJ,07663,(201) 712-1130,40.89917439,-74.09244094,blue,30.0
5603133,Acme Markets,751 S Salisbury Blvd,Salisbury,MD,21801,(410) 742-1343,38.35518654,-75.59934453,red,30.0
5603032,Acme Markets,7700 Crittenden St,Philadelphia,PA,19118,(215) 248-6490,40.07165682,-75.19381514,blue,30.0
5603099,Acme Markets,785 Starr St,Phoenixville,PA,19460,(610) 933-6299,40.12394834,-75.50701048,blue,30.0
5603107,Acme Markets,800 2nd St Pike,Richboro,PA,18954,(215) 354-4424,40.20773809,-75.01240859,blue,30.0
5603015,Acme Markets,800 West Ave,Ocean City,NJ,08226,(609) 814-9780,39.28063304,-74.57690774,blue,30.0
5602970,Acme Markets,801 Kenilworth Blvd,Kenilworth,NJ,07033,(908) 259-0725,40.67804365,-74.28151941,blue,30.0
5603026,Acme Markets,815 Lansdowne Ave,Upper Darby,PA,19082,(610) 789-0898,39.96096524,-75.28713957,blue,30.0
5602976,Acme Markets,8200 Roosevelt Blvd,Philadelphia,PA,19152,(215) 338-8077,40.06028147,-75.04533676,blue,30.0
5603096,Acme Markets,829 Montgomery Ave,Narberth,PA,19072,(610) 668-1738,40.01099027,-75.25805555,blue,30.0
5603001,Acme Markets,829 Route 82,Hopewell Junction,NY,12533,(845) 227-0581,41.58065754,-73.81210702,blue,30.0
5603101,Acme Markets,851 Gap Newport Pike,Avondale,PA,19311,(610) 268-3898,39.83546331,-75.79861388,blue,30.0
5603078,Acme Markets,857 Route 45,Woodstown,NJ,08098,(856) 769-8000,39.64497331,-75.34119502,blue,30.0
5603130,Acme Markets,907 Paoli Pike,West Chester,PA,19380,(610) 431-4726,39.96981669,-75.58729755,blue,30.0
5603079,Acme Markets,912 W Bay Ave,Barnegat,NJ,08005,(609) 607-5909,39.75942309,-74.24621534,blue,30.0
5602974,Acme Markets,920 Red Lion Rd,Philadelphia,PA,19115,(215) 676-5601,40.10060393,-75.02643172,blue,30.0
5603047,Acme Markets,9507 Coastal Hwy,Ocean City,MD,21842,(410) 723-7004,38.41069013,-75.06063005,red,30.0
5603077,Acme Markets,953 Route 33,Trenton,NJ,08690,(609) 890-2551,40.2284797,-74.67091111,blue,30.0
5603086,Acme Markets,9600 Long Beach Blvd,Long Beach Township,NJ,08008,(609) 492-0510,39.60399465,-74.21138149,blue,30.0
5603369,Albertsons,15232 George O'neal Rd,Baton Rouge,LA,70817,(225) 753-0700,30.406403,-91.015028,red,30.0
5603536,Albertsons,2863 Ambassador,Caffery Lafayette,LA,70506,(337) 406-8887,30.19826944,-92.07380589,red,30.0
5603521,Albertsons,4400 Ambassador,Caffery Lafayette,LA,70508,(337) 984-4587,30.156494,-92.050708,blue,30.0
5603239,Albertsons,100 E Taylor St,Sherman,TX,75092,(903) 868-9686,33.65340185,-96.61387209,red,30.0
5603455,Albertsons,1001 S Rainbow Blvd,Las Vegas,NV,89145,(702) 877-3338,36.160142,-115.245016,blue,30.0
5603246,Albertsons,1003 E Broadway St,Missoula,MT,59802,(406) 549-2351,46.867775,-113.981348,red,30.0
81347771,Albertsons,1005 W Coulter Ave,Powell,WY,82435,(307) 271-3155,44.747983,-108.771505,red,30.0
5603552,Albertsons,1008 Nevada Hwy,Boulder City,NV,89005,(702) 293-7611,35.9761067,-114.8451572,blue,30.0
5603165,Albertsons,101 E Willow St,Long Beach,CA,90806,(562) 988-8785,33.805316,-118.192328,blue,30.0
5603296,Albertsons,10140 W Flamingo Rd,Las Vegas,NV,89147,(702) 562-1745,36.116225,-115.31342,blue,30.0
5603353,Albertsons,1018 Casitas Pass Rd,Carpinteria,CA,93013,(805) 684-4815,34.3948084,-119.5119491,blue,30.0
5603245,Albertsons,1024 21st St,Lewiston,ID,83501,(208) 743-1561,46.40948,-117.002433,red,30.0
5603295,Albertsons,10250 W Charleston Blvd,Las Vegas,NV,89135,(702) 838-4322,36.160866,-115.31956,blue,30.0
5603466,Albertsons,104 Military Rd,Tacoma,WA,98444,(253) 538-1688,47.117357,-122.432779,red,30.0
5603178,Albertsons,1044 W Kern St,Taft,CA,93268,(661) 765-4944,35.146214,-119.466332,red,30.0
5603215,Albertsons,105 Buffalo Way,Jackson,WY,83001,(307) 733-5950,43.472634,-110.789115,red,30.0
5603237,Albertsons,105 E Southfield Rd,Shreveport,LA,71105,(318) 869-1646,32.45585,-93.6988,red,30.0
5603197,Albertsons,10500 W Overland Rd,Boise,ID,83709,(208) 377-0932,43.591713,-116.313312,blue,30.0
5603326,Albertsons,10565 W Lake Hazel Rd,Boise,ID,83709,(208) 319-0880,43.545047,-116.313608,blue,30.0
5603199,Albertsons,10700 W Ustick Rd,Boise,ID,83713,(208) 322-7744,43.634267,-116.315973,blue,30.0
5603496,Albertsons,1076 Cy Ave,Casper,WY,82604,(307) 266-0136,42.835072,-106.339018,red,30.0
5603390,Albertsons,10765 Kenworthy,El Paso,TX,79924,(915) 821-2006,31.92067,-106.438387,blue,30.0
5603298,Albertsons,11012 Canyon Rd E,Puyallup,WA,98373,(253) 537-3770,47.155812,-122.359156,blue,30.0
5603316,Albertsons,1120 Campbell St,Baker City,OR,97814,(541) 524-0412,44.783206,-117.819197,red,30.0
5603179,Albertsons,1120 E Clark Ave,Orcutt,CA,93455,(805) 934-4472,34.863871,-120.417295,blue,30.0
5603335,Albertsons,1128 N Miller St,Wenatchee,WA,98801,(509) 663-8547,47.43791182,-120.3259865,red,30.0
5603365,Albertsons,113 Ross Ln,Medford,OR,97501,(541) 858-5937,42.32516,-122.900723,red,30.0
5603231,Albertsons,11320 Montwood Dr,El Paso,TX,79936,(915) 855-9761,31.76765,-106.302103,red,30.0
5603464,Albertsons,1133 S Mission Rd,Fallbrook,CA,92028,(760) 723-8177,33.371645,-117.25525,red,30.0
5603345,Albertsons,11358 Kenyon Way,Rancho Cucamonga,CA,91701,(909) 941-7166,34.135544,-117.557207,red,30.0
5603226,Albertsons,11475 E Via Linda,Scottsdale,AZ,85259,(480) 767-0819,33.58884,-111.834202,blue,30.0
5603144,Albertsons,1155 N Main St,Euless,TX,76039,(817) 354-9195,32.852919,-97.083456,blue,30.0
5603545,Albertsons,117 Main St S,Harlem,MT,59526,(406) 353-2225,48.53166,-108.784855,red,30.0
5603219,Albertsons,117 W Janeaux St,Lewistown,MT,59457,(406) 538-5454,47.065537,-109.422953,red,30.0
5603456,Albertsons,11720 W Charleston Blvd,Las Vegas,NV,89135,(702) 363-1153,36.159182,-115.350715,blue,30.0
5603409,Albertsons,1201 N Saginaw Blvd,Saginaw,TX,76179,(817) 232-2777,32.879806,-97.381757,blue,30.0
5603470,Albertsons,12013 Central Ave,Chino,CA,91710,(909) 464-1594,34.035444,-117.688725,blue,30.0
5603272,Albertsons,1210 Albertson Pkwy,Broussard,LA,70518,(337) 839-1717,30.139874,-91.948675,blue,30.0
5603375,Albertsons,1212 Grand Ave,Billings,MT,59102,(406) 245-4118,45.783169,-108.547398,red,30.0
5603152,Albertsons,1219 S Broadway Ave,Boise,ID,83706,(208) 336-5278,43.597773,-116.195234,blue,30.0
5603416,Albertsons,1221 Addison Ave E,Twin Falls,ID,83301,(208) 733-3573,42.56376952,-114.4584568,red,30.0
5603355,Albertsons,1235 S Diamond Bar Blvd,Diamond Bar,CA,91765,(909) 861-6207,34.0002527,-117.8129168,blue,30.0
5603308,Albertsons,12475 Rancho Bernardo Rd,San Diego,CA,92128,(858) 385-9223,33.017562,-117.061848,blue,30.0
5603277,Albertsons,1260 E Ontario Ave,Corona,CA,92881,(951) 734-8451,33.846815,-117.542321,blue,30.0
5603383,Albertsons,1268 Madera Rd,Simi Valley,CA,93065,(805) 520-9306,34.26155,-118.795043,red,30.0
5603220,Albertsons,1285 S El Paseo Rd,Las Cruces,NM,88001,(575) 523-5538,32.298187,-106.770394,red,30.0
5603382,Albertsons,12970 W Indian School Rd,Litchfield Park,AZ,85340,(623) 535-7991,33.49471631,-112.338091,blue,30.0
5603501,Albertsons,130 5th Ave N,Shelby,MT,59474,(406) 434-5581,48.50726669,-111.8599961,red,30.0
5603157,Albertsons,1300 Airport Freeway,Bedford,TX,76022,(817) 354-0622,32.837243,-97.150161,blue,30.0
5603405,Albertsons,1300 E Flamingo Rd,Las Vegas,NV,89119,(702) 733-2947,36.11579642,-115.1361748,blue,30.0
5603400,Albertsons,1300 E Park Ave,Anaconda,MT,59711,(406) 563-5238,46.126786,-112.934863,red,30.0
5603309,Albertsons,1301 E Vista Way,Vista,CA,92084,(760) 806-2785,33.2182665,-117.2243439,blue,30.0
5603176,Albertsons,1301 N Norma St,Ridgecrest,CA,93555,(760) 446-2544,35.6455409,-117.6810661,red,30.0
5603372,Albertsons,13045 Rosedale Hwy,Bakersfield,CA,93314,(661) 587-0153,35.38187663,-119.1464017,red,30.0
5603406,Albertsons,1313 N 1st St,Hamilton,MT,59840,(406) 363-4555,46.263148,-114.15844,red,30.0
5637751,Albertsons,132 E Lake St,Mccall,ID,83638,(208) 634-8166,44.90983691,-116.1022181,red,30.0
5603327,Albertsons,1323 Dewar Dr,Rock Springs,WY,82901,(307) 362-8386,41.5756111,-109.2362269,red,30.0
5603360,Albertsons,13270 Newport Ave,Tustin,CA,92780,(714) 544-8525,33.745492,-117.813135,blue,30.0
5603497,Albertsons,133 W Route 66,Glendora,CA,91740,(626) 963-5358,34.130068,-117.8650256,blue,30.0
5603311,Albertsons,1350 N Silverbell Rd,Tucson,AZ,85745,(520) 623-7449,32.23877756,-111.0040772,red,30.0
5603366,Albertsons,1360 Plaza Blvd,Central Point,OR,97502,(541) 665-3761,42.376291,-122.904523,blue,30.0
1084801829,Albertsons,13671 Eastlake Blvd,Horizon City,TX,79928,(915) 337-3188,31.7004933,-106.2136757,blue,30.0
5603162,Albertsons,1410 Westpark Plaza,Ontario,OR,97914,(541) 889-9123,44.0233558,-116.9838234,red,30.0
5603341,Albertsons,1414 3rd St Nw,Great Falls,MT,59404,(406) 761-6800,47.520092,-111.311082,red,30.0
5603266,Albertsons,14201 Jeffrey Rd,Irvine,CA,92620,(949) 733-0698,33.695241,-117.765416,blue,30.0
5603462,Albertsons,1434 Olney Ave Se,Port Orchard,WA,98366,(360) 895-2292,47.5357473,-122.6105256,blue,30.0
5603561,Albertsons,14551 W Grand Ave,Surprise,AZ,85374,(623) 546-8038,33.656594,-112.375464,red,30.0
5603524,Albertsons,1459 Main St,Ramona,CA,92065,(760) 789-0023,33.038672,-116.876486,blue,30.0
5603303,Albertsons,1500 N H St,Lompoc,CA,93436,(805) 736-3948,34.662353,-120.456226,red,30.0
5603426,Albertsons,1500 S Beltline Rd,Mesquite,TX,75149,(972) 285-0226,32.745608,-96.595844,red,30.0
5603461,Albertsons,1509 E Valley Pkwy,Escondido,CA,92027,(760) 735-5131,33.131488,-117.0595716,blue,30.0
5603513,Albertsons,151 Woodland Pkwy,San Marcos,CA,92069,(760) 736-8880,33.139847,-117.13848,blue,30.0
5603370,Albertsons,15128 Airline Hwy,Baton Rouge,LA,70817,(225) 751-2808,30.357554,-91.008575,blue,30.0
5603328,Albertsons,1520 Brundage Ln,Bakersfield,CA,93304,(661) 328-0818,35.354295,-119.019565,blue,30.0
5603190,Albertsons,1520 N Cole Rd,Boise,ID,83704,(208) 375-2542,43.618065,-116.273141,blue,30.0
5603187,Albertsons,15200 Rosecrans Ave,La Mirada,CA,90638,(714) 521-2310,33.897476,-118.007778,blue,30.0
5603208,Albertsons,1570 W Valley Pkwy,Escondido,CA,92029,(760) 738-1669,33.1087308,-117.1057968,blue,30.0
5603532,Albertsons,1571 San Elijo Rd S,San Marcos,CA,92078,(760) 798-1058,33.09690372,-117.1997179,blue,30.0
5603364,Albertsons,15970 Los Serranos Country Club Dr,Chino Hills,CA,91709,(909) 606-8184,33.96160806,-117.695709,blue,30.0
5603541,Albertsons,1601 Hwy 50 W,Pueblo,CO,81008,(719) 543-5671,38.310837,-104.627987,red,30.0
5603374,Albertsons,1601 S Melrose Dr,Vista,CA,92081,(760) 598-0142,33.165545,-117.247438,blue,30.0
5603148,Albertsons,16061 Brookhurst St,Fountain Valley,CA,92708,(714) 531-0417,33.729333,-117.956591,blue,30.0
5603310,Albertsons,1608 Broadway St,El Cajon,CA,92021,(619) 579-3127,32.808988,-116.920134,red,30.0
5603348,Albertsons,16199 Boones Ferry Rd,Lake Oswego,OR,97035,(503) 635-3429,45.409371,-122.722856,blue,30.0
5603397,Albertsons,1650 N Buffalo Dr,Las Vegas,NV,89128,(702) 562-6079,36.1898335,-115.258754,blue,30.0
5603140,Albertsons,1650 W State St,Boise,ID,83702,(208) 342-5651,43.624623,-116.209641,blue,30.0
5603222,Albertsons,1653 S Vista Ave,Boise,ID,83705,(208) 331-1953,43.589074,-116.215268,blue,30.0
5603539,Albertsons,16600 Bolsa Chica St,Huntington Beach,CA,92649,(714) 846-9431,33.721098,-118.040696,blue,30.0
5603347,Albertsons,1675 W 18th Ave,Eugene,OR,97402,(541) 485-7027,44.041495,-123.11658,red,30.0
5603351,Albertsons,1690 Allen Creek Rd,Grants Pass,OR,97527,(541) 471-2148,42.41920361,-123.3523959,red,30.0
5603281,Albertsons,1702 E 66th Ave,Gallup,NM,87301,(505) 722-4457,35.5291086,-108.7169408,red,30.0
5603185,Albertsons,1705 W Broadway St,Idaho Falls,ID,83402,(208) 522-3392,43.49585,-112.064878,red,30.0
5603145,Albertsons,1735 W Artesia Blvd,Gardena,CA,90248,(310) 380-4620,33.874121,-118.308077,blue,30.0
5603193,Albertsons,1751 N Sunrise Way #1,Palm Springs,CA,92262,(760) 864-1141,33.84715533,-116.529651,red,30.0
5603450,Albertsons,1760 E Charleston Blvd,Las Vegas,NV,89104,(702) 366-1550,36.15693756,-115.1256046,blue,30.0
5603268,Albertsons,1800 Ne 3rd St,Bend,OR,97701,(541) 382-3661,44.06829251,-121.3015628,red,30.0
5603194,Albertsons,1800 W Whittier Blvd,La Habra,CA,90631,(562) 697-6442,33.9384575,-117.9664436,blue,30.0
5603518,Albertsons,1801 W Thomas St,Hammond,LA,70401,(985) 542-9720,30.49917613,-90.47997963,red,30.0
5603233,Albertsons,1825 17th St,Cody,WY,82414,(307) 527-7007,44.517907,-109.055176,red,30.0
5603289,Albertsons,18411 N Cave Creek Rd,Phoenix,AZ,85032,(602) 494-7388,33.653907,-112.02973,blue,30.0
1080594474,Albertsons,1855 12th Ave Nw,Ardmore,OK,73401,(580) 826-3651,34.189467,-97.1511089,red,30.0
5603207,Albertsons,18579 Brookhurst,Fountain Valley,CA,92708,(714) 963-7503,33.693106,-117.955617,blue,30.0
5603504,Albertsons,1865 Coffeen Ave,Sheridan,WY,82801,(307) 672-8909,44.77764535,-106.9414469,red,30.0
5603302,Albertsons,189 Niblick Rd,Paso Robles,CA,93446,(805) 237-1626,35.616661,-120.681232,blue,30.0
5603314,Albertsons,190 N Boulder Hwy,Henderson,NV,89015,(702) 565-3068,36.041817,-114.981294,blue,30.0
5603480,Albertsons,19007 S Beavercreek Rd,Oregon City,OR,97045,(503) 657-3248,45.3298248,-122.5732341,blue,30.0
5603305,Albertsons,1901 S 25th E,Ammon,ID,83406,(208) 524-8100,43.475355,-111.996122,blue,30.0
5603494,Albertsons,1910 N Campus Ave,Upland,CA,91784,(909) 946-4447,34.131298,-117.63749,blue,30.0
5603516,Albertsons,1929 W San Marcos Blvd,San Marcos,CA,92078,(760) 598-7272,33.131646,-117.210633,blue,30.0
5603542,Albertsons,1930 N Placentia Ave,Fullerton,CA,92831,(714) 792-2880,33.890228,-117.87221,blue,30.0
5603243,Albertsons,19307 Saticoy St,Reseda,CA,91335,(818) 772-0010,34.208508,-118.554349,red,30.0
5603324,Albertsons,1940 Village Center Circle,Las Vegas,NV,89134,(702) 341-0308,36.193705,-115.305895,blue,30.0
5603562,Albertsons,1951 W Baseline Rd,Mesa,AZ,85202,(480) 456-4373,33.377805,-111.876173,red,30.0
5603381,Albertsons,1956 Hwy 180 E,Silver City,NM,88061,(575) 388-1909,32.786513,-108.251518,red,30.0
5603523,Albertsons,19640 Beach Blvd,Huntington Beach,CA,92648,(714) 964-7979,33.677143,-117.98694,blue,30.0
5603312,Albertsons,1980 Mcculloch Blvd,Lake Havasu City,AZ,86403,(928) 854-5300,34.47649,-114.334522,red,30.0
5603279,Albertsons,20 26th St E,Williston,ND,58801,(701) 572-1097,48.167697,-103.622466,red,30.0
5603201,Albertsons,20 E Fairview Ave,Meridian,ID,83642,(208) 888-4792,43.620614,-116.392715,red,30.0
5603330,Albertsons,20 E Wyoming Ave,Homedale,ID,83628,(208) 337-4679,43.616156,-116.9329109,red,30.0
5603376,Albertsons,200 E Sepulveda Blvd,Carson,CA,90745,(310) 513-1900,33.806573,-118.272515,blue,30.0
5603495,Albertsons,200 S 23rd Ave,Bozeman,MT,59718,(406) 586-4785,45.676499,-111.065986,red,30.0
5603333,Albertsons,200 S Hwy 160,Pahrump,NV,89048,(775) 751-0160,36.2174038,-115.9950454,red,30.0
5603519,Albertsons,200 W Crawford St,Denison,TX,75020,(903) 463-6076,33.752497,-96.53784,blue,30.0
5603493,Albertsons,2000 E 17th St,Santa Ana,CA,92705,(714) 541-9100,33.758916,-117.838206,blue,30.0
5603479,Albertsons,2000 Marcola Rd,Springfield,OR,97477,(541) 746-8850,44.065592,-122.99508,blue,30.0
5603228,Albertsons,201 S Stephanie St,Henderson,NV,89012,(702) 269-1502,36.020378,-115.049394,blue,30.0
5603344,Albertsons,20261 Hwy 18,Apple Valley,CA,92307,(760) 242-3660,34.52528,-117.220474,red,30.0
5603377,Albertsons,2035 Hillhurst Ave,Los Angeles,CA,90027,(323) 660-0687,34.108647,-118.287588,blue,30.0
1030387961,Albertsons,205 S 1st Ave,Laurel,MT,59044,(406) 812-3185,45.666718,-108.770675,blue,30.0
30363345,Albertsons,210 N Highbrook Way,Star,ID,83669,(208) 272-9440,43.69387909,-116.5016829,blue,30.0
5603446,Albertsons,210 W Katherine P Raines,Cleburne,TX,76033,(817) 641-2002,32.38452,-97.394265,blue,30.0
5603251,Albertsons,21001 N Tatum Blvd Suite 76,Phoenix,AZ,85050,(480) 342-8231,33.67868728,-111.9747087,blue,30.0
5603267,Albertsons,2108 W Main St,Battle Ground,WA,98604,(360) 687-4130,45.781429,-122.559941,blue,30.0
5603430,Albertsons,2120 W Park St,Livingston,MT,59047,(406) 222-1177,45.642307,-110.575768,red,30.0
5603433,Albertsons,215 N Carrier Pkwy,Grand Prairie,TX,75050,(972) 642-6555,32.743701,-97.01754,blue,30.0
5603270,Albertsons,2150 N Josey Ln,Carrollton,TX,75006,(972) 446-8226,32.97463506,-96.88852245,blue,30.0
5603436,Albertsons,2165 E Buckingham Dr,Richardson,TX,75081,(972) 680-1711,32.932123,-96.683808,red,30.0
5603490,Albertsons,220 E Bonita Ave,San Dimas,CA,91773,(909) 599-8836,34.105988,-117.803941,blue,30.0
93528683,Albertsons,2200 W Shady Grove Rd,Irving,TX,75060,(972) 374-5110,32.799744,-96.9756,blue,30.0
5603553,Albertsons,2200 Yarbrough Dr,El Paso,TX,79925,(915) 591-9477,31.772806,-106.337997,blue,30.0
5603229,Albertsons,2205 Oxford St,Missoula,MT,59801,(406) 549-5105,46.851038,-114.017571,blue,30.0
5603323,Albertsons,222 E Hwy 246,Buellton,CA,93427,(805) 693-1069,34.6095008,-120.1884256,blue,30.0
5603447,Albertsons,2230 N Reserve St,Missoula,MT,59808,(406) 728-1116,46.886351,-114.036597,blue,30.0
5603425,Albertsons,225 E Spring St,Weatherford,TX,76086,(817) 594-9390,32.760408,-97.794076,red,30.0
5603368,Albertsons,2250 10th Ave S,Great Falls,MT,59405,(406) 727-3700,47.493234,-111.269123,blue,30.0
5603317,Albertsons,2265 S Macarthur Dr,Alexandria,LA,71301,(318) 487-9395,31.273966,-92.463416,red,30.0
5603149,Albertsons,2291 W Malvern Ave,Fullerton,CA,92833,(714) 992-6099,33.878538,-117.965983,blue,30.0
5603482,Albertsons,2301 Ashland St,Ashland,OR,97520,(541) 482-6320,42.18674821,-122.6708576,blue,30.0
5603259,Albertsons,23072 Alicia Pkwy,Mission Viejo,CA,92692,(949) 583-7337,33.627593,-117.6358071,red,30.0
5603173,Albertsons,2320 S Broadway,Santa Maria,CA,93454,(805) 346-2077,34.917705,-120.43456,red,30.0
5603422,Albertsons,2321 W University Dr,Denton,TX,76201,(940) 383-2391,33.228647,-97.162961,red,30.0
5603503,Albertsons,2334 Central Ave,Billings,MT,59102,(406) 656-8160,45.768537,-108.575261,blue,30.0
5603384,Albertsons,2378 W 24th St,Yuma,AZ,85364,(928) 343-2330,32.684837,-114.648527,red,30.0
5603320,Albertsons,23850 Copperhill Dr,Valencia,CA,91354,(661) 775-0163,34.46252,-118.556604,blue,30.0
5603528,Albertsons,23893 Clinton Keith Rd,Wildomar,CA,92595,(951) 600-4607,33.59569,-117.241618,red,30.0
5603210,Albertsons,2400 12th Ave Rd,Nampa,ID,83686,(208) 465-6597,43.545796,-116.57143,blue,30.0
5603258,Albertsons,2400 W Commonwealth Ave,Alhambra,CA,91803,(626) 293-7100,34.08645742,-118.149872,blue,30.0
5603346,Albertsons,24251 Muirlands Blvd,Lake Forest,CA,92630,(949) 581-1642,33.630204,-117.706455,blue,30.0
5603151,Albertsons,2469 Via Campo St,Montebello,CA,90640,(323) 888-2250,34.0311748,-118.1226002,blue,30.0
5603214,Albertsons,250 S Eagle Rd,Eagle,ID,83616,(208) 939-9850,43.692397,-116.352458,blue,30.0
5603204,Albertsons,2500 Blaine St,Caldwell,ID,83605,(208) 454-1271,43.652607,-116.671656,blue,30.0
5603236,Albertsons,2500 E Imperial Hwy,Brea,CA,92821,(714) 671-1180,33.91004,-117.865163,blue,30.0
5603380,Albertsons,2501 N Main St,Las Cruces,NM,88001,(575) 524-1980,32.33364279,-106.7830783,blue,30.0
5603284,Albertsons,252 W 32nd St,Yuma,AZ,85364,(928) 726-9500,32.6713745,-114.6210529,blue,30.0
5603170,Albertsons,2547 Rosamond,Rosamond,CA,93560,(661) 256-0756,34.865292,-118.176702,blue,30.0
5603332,Albertsons,2550 32nd Ave W,Seattle,WA,98199,(206) 283-9434,47.64244475,-122.397949,red,30.0
5603160,Albertsons,2550 S Fort Apache Rd,Las Vegas,NV,89117,(702) 242-1138,36.143327,-115.296264,blue,30.0
5603551,Albertsons,2551 E Lohman Ave,Las Cruces,NM,88011,(575) 521-9837,32.316904,-106.743891,blue,30.0
5603191,Albertsons,2582 Idaho St,Elko,NV,89801,(775) 738-8016,40.851662,-115.743086,red,30.0
5603525,Albertsons,260 W Foothill Pkwy,Corona,CA,92882,(951) 340-1425,33.8436,-117.574223,blue,30.0
5603508,Albertsons,2610 S Douglas Hwy,Gillette,WY,82718,(307) 686-7352,44.27053105,-105.4950543,red,30.0
5603502,Albertsons,2625 E 2nd St,Casper,WY,82609,(307) 237-9361,42.848223,-106.292108,blue,30.0
5603169,Albertsons,26521 Agoura Rd,Calabasas,CA,91302,(818) 880-9080,34.144793,-118.699512,blue,30.0
5603153,Albertsons,2678 Johnston St,Lafayette,LA,70503,(337) 233-2940,30.20883142,-92.03867921,blue,30.0
5603361,Albertsons,2691 Mt Vernon Ave,Bakersfield,CA,93306,(661) 872-3511,35.396037,-118.966105,blue,30.0
5603389,Albertsons,2727 N Power Rd,Mesa,AZ,85215,(480) 396-9282,33.4651438,-111.6817211,blue,30.0
5603278,Albertsons,2750 Country Club Rd,Lake Charles,LA,70605,(337) 480-0424,30.1704956,-93.26535044,red,30.0
5603175,Albertsons,27631 W Bouquet Canyon Rd,Saugus,CA,91350,(661) 296-9655,34.444157,-118.511694,blue,30.0
5603474,Albertsons,27702 Crown Valley Pkwy Suite B,Ladera Ranch,CA,92694,(949) 364-2040,33.56232209,-117.646167,blue,30.0
5603286,Albertsons,2785 N Scottsdale Rd,Scottsdale,AZ,85257,(480) 947-6977,33.478884,-111.924411,red,30.0
5603498,Albertsons,28047 Scott Rd,Murrieta,CA,92563,(951) 246-1586,33.639322,-117.169778,blue,30.0
5603509,Albertsons,28090 S Western Ave,San Pedro,CA,90732,(310) 831-1323,33.76533,-118.31014,blue,30.0
5603413,Albertsons,2828 Motley Dr,Mesquite,TX,75150,(972) 270-2406,32.803201,-96.644817,blue,30.0
5603402,Albertsons,2835 S Nellis Blvd,Las Vegas,NV,89121,(702) 457-1491,36.138577,-115.066872,red,30.0
5603558,Albertsons,2854 N Campbell Ave,Tucson,AZ,85719,(520) 321-1212,32.258714,-110.942594,blue,30.0
5603507,Albertsons,2885 E Desert Inn Rd,Las Vegas,NV,89121,(702) 792-7156,36.12871,-115.110847,blue,30.0
5603275,Albertsons,2899 Jamacha Rd,El Cajon,CA,92019,(619) 660-9717,32.73921632,-116.9375405,blue,30.0
5603315,Albertsons,2910 Bicentennial Pkwy,Henderson,NV,89044,(702) 567-1023,35.942403,-115.117413,blue,30.0
5603154,Albertsons,2935 E Riggs Rd,Chandler,AZ,85249,(480) 802-1970,33.218231,-111.790815,blue,30.0
5603511,Albertsons,2955 Alpine Blvd,Alpine,CA,91901,(619) 445-0231,32.832934,-116.750402,blue,30.0
5603263,Albertsons,2975 Van Buren Blvd,Riverside,CA,92503,(951) 689-2252,33.909378,-117.437212,blue,30.0
5603476,Albertsons,298 E Live Oak Ave,Arcadia,CA,91006,(626) 446-1416,34.107609,-118.023469,blue,30.0
5603261,Albertsons,29941 Alicia Pkwy,Laguna Niguel,CA,92677,(949) 495-1891,33.528309,-117.717671,blue,30.0
5603230,Albertsons,30 S 3rd St E,Malta,MT,59538,(406) 654-2041,48.35713573,-107.8734498,red,30.0
5603343,Albertsons,300 S Highland Springs Ave #7,Banning,CA,92220,(951) 769-1779,33.92485843,-116.9448755,blue,30.0
5603434,Albertsons,3001 S Central Expy,Mckinney,TX,75070,(972) 548-1003,33.170487,-96.637198,blue,30.0
5603460,Albertsons,301 Marysville Mall #60,Marysville,WA,98270,(360) 659-5841,48.05094947,-122.1795681,red,30.0
5603418,Albertsons,301 Sw Plaza Shopping Center,Arlington,TX,76016,(817) 478-4291,32.676688,-97.19981,blue,30.0
5603393,Albertsons,3010 W Ann Rd,North Las Vegas,NV,89031,(702) 656-3103,36.262924,-115.181223,blue,30.0
5603234,Albertsons,30241 Golden Lantern,Laguna Niguel,CA,92677,(949) 363-0456,33.523959,-117.687445,blue,30.0
5603459,Albertsons,30530 Rancho California Rd,Temecula,CA,92591,(951) 694-0244,33.510117,-117.12721,blue,30.0
5603401,Albertsons,307 N Harmon St,Glendive,MT,59330,(406) 365-3324,47.1084866,-104.7277805,red,30.0
5603358,Albertsons,3075 Hilyard St,Eugene,OR,97405,(541) 687-1742,44.02311516,-123.0809696,blue,30.0
5603537,Albertsons,30901 Riverside Dr,Lake Elsinore,CA,92530,(951) 245-4461,33.686101,-117.366707,blue,30.0
5603223,Albertsons,3100 Mesa St,El Paso,TX,79902,(915) 351-1002,31.780656,-106.504006,blue,30.0
5603481,Albertsons,311 Coburg Rd,Eugene,OR,97401,(541) 342-7635,44.06467625,-123.073714,blue,30.0
5603538,Albertsons,311 W College Dr,Durango,CO,81301,(970) 382-2224,37.271972,-107.885111,red,30.0
5603391,Albertsons,3130 W Carefree Hwy,Phoenix,AZ,85086,(623) 582-4985,33.799488,-112.127011,blue,30.0
5603407,Albertsons,3137 Grand Ave,Billings,MT,59102,(406) 652-8370,45.784903,-108.592942,blue,30.0
5603563,Albertsons,3145 S Alma School Rd,Chandler,AZ,85248,(480) 899-7102,33.260778,-111.857319,blue,30.0
23014557,Albertsons,3150 N Zaragoza Rd,El Paso,TX,79938,(915) 995-3595,31.77902,-106.2490899,blue,30.0
5603395,Albertsons,3151 N Montana Ave,Helena,MT,59602,(406) 443-8557,46.618907,-112.018593,red,30.0
5603533,Albertsons,31960 Temecula Pkwy,Temecula,CA,92592,(951) 303-1133,33.482136,-117.100403,blue,30.0
5603444,Albertsons,320 Casa Linda Plaza,Dallas,TX,75218,(214) 319-7919,32.8340827,-96.6998217,blue,30.0
5603555,Albertsons,325 S Power Rd,Mesa,AZ,85206,(480) 924-9001,33.4093,-111.682933,blue,30.0
5603254,Albertsons,3255 Grand Ave,Chino Hills,CA,91709,(909) 590-3660,34.001085,-117.734284,blue,30.0
5603196,Albertsons,330 E Benton St,Pocatello,ID,83201,(208) 233-0455,42.862699,-112.442694,red,30.0
5603213,Albertsons,3301 W Cherry Ln,Meridian,ID,83642,(208) 884-5471,43.61799919,-116.4343011,blue,30.0
5603505,Albertsons,3355 E Pershing Blvd,Cheyenne,WY,82001,(307) 635-1151,41.144368,-104.769296,red,30.0
5603262,Albertsons,33601 Del Obispo St,Dana Point,CA,92629,(949) 496-7900,33.475052,-117.685946,blue,30.0
5603526,Albertsons,3450 Marron Rd,Oceanside,CA,92056,(760) 729-3468,33.179257,-117.29643,blue,30.0
5603301,Albertsons,3500 Panama Ln,Bakersfield,CA,93313,(661) 827-0394,35.296431,-119.041026,blue,30.0
5603338,Albertsons,3520 Pacific Ave Se,Olympia,WA,98501,(360) 459-9340,47.042711,-122.845752,red,30.0
5603440,Albertsons,3525 Sycamore School Rd,Fort Worth,TX,76133,(817) 346-6497,32.634016,-97.371357,red,30.0
5603244,Albertsons,3563 Alton Rd,Fort Worth,TX,76109,(817) 548-1415,32.697836,-97.369149,blue,30.0
5603411,Albertsons,3603 Mccann Rd,Longview,TX,75605,(903) 663-2082,32.543148,-94.755106,red,30.0
5603218,Albertsons,3614 W State St,Boise,ID,83703,(208) 426-9614,43.640322,-116.232929,blue,30.0
5603500,Albertsons,3710 State Line Ave,Texarkana,AR,71854,(870) 774-3146,33.459214,-94.04192,red,30.0
5603141,Albertsons,3800 Russell St,Missoula,MT,59801,(406) 549-1547,46.83614,-114.015404,blue,30.0
5603168,Albertsons,38727 Tierra Subida Ave,Palmdale,CA,93551,(661) 274-9557,34.585583,-118.148999,blue,30.0
5603414,Albertsons,3901 Crenshaw Blvd,Los Angeles,CA,90008,(323) 295-1919,34.0140587,-118.3357846,blue,30.0
5603527,Albertsons,39140 Winchester Rd,Murrieta,CA,92563,(951) 600-4461,33.5515,-117.138265,blue,30.0
5603339,Albertsons,3925 236th Ave Ne,Redmond,WA,98053,(425) 836-8112,47.645239,-122.026141,blue,30.0
5603274,Albertsons,3925 Mission Ave,Oceanside,CA,92058,(760) 433-8107,33.227604,-117.323933,blue,30.0
5603247,Albertsons,400 Bridge St,Clarkston,WA,99403,(509) 758-5523,46.421235,-117.0430024,blue,30.0
5603265,Albertsons,40101 Monterey Ave,Rancho Mirage,CA,92270,(760) 674-4769,33.757464,-116.391729,blue,30.0
5603205,Albertsons,405 S Main St,Payette,ID,83661,(208) 642-9075,44.0701839,-116.934123,blue,30.0
5603392,Albertsons,4055 S Durango Dr,Las Vegas,NV,89147,(702) 869-1474,36.11605,-115.280296,blue,30.0
5603520,Albertsons,4060 Ryan St S,Lake Charles,LA,70605,(337) 478-8995,30.185313,-93.2201105,blue,30.0
5603292,Albertsons,4060 W Ray Rd,Chandler,AZ,85226,(480) 491-1026,33.321482,-111.912366,blue,30.0
5603271,Albertsons,41000 California Oaks Rd,Murrieta,CA,92562,(951) 600-1027,33.5669604,-117.2038121,blue,30.0
5603189,Albertsons,415 Blaine St,Wolf Point,MT,59201,(406) 653-1700,48.092415,-105.643503,red,30.0
5603142,Albertsons,415 Cleveland Blvd,Caldwell,ID,83605,(208) 459-3411,43.667145,-116.693089,blue,30.0
5603530,Albertsons,4150 Oceanside Blvd,Oceanside,CA,92056,(760) 940-8282,33.207748,-117.287328,blue,30.0
5603478,Albertsons,42095 Washington St,Palm Desert,CA,92211,(760) 360-6322,33.7428456,-116.3055706,blue,30.0
5603415,Albertsons,427 E Fm 1382,Cedar Hill,TX,75104,(972) 291-9863,32.59314668,-96.93525057,red,30.0
5603428,Albertsons,4351 Fm 2181,Corinth,TX,76210,(940) 321-4540,33.131581,-97.043361,blue,30.0
5603166,Albertsons,43543 20th St W,Lancaster,CA,93534,(661) 940-4747,34.67372687,-118.1676939,red,30.0
5603421,Albertsons,4400 Western Center Blvd,Fort Worth,TX,76137,(817) 232-2180,32.860056,-97.291028,blue,30.0
5603225,Albertsons,441 N Val Vista Dr,Mesa,AZ,85213,(480) 830-5132,33.423873,-111.75245,blue,30.0
5603174,Albertsons,4415 W 7th St,Texarkana,TX,75501,(903) 831-7226,33.417063,-94.0992,blue,30.0
5603164,Albertsons,450 E Cypress Ave,Redlands,CA,92373,(909) 792-1114,34.048851,-117.171502,blue,30.0
5603477,Albertsons,451 Ne 181st St,Portland,OR,97230,(503) 666-3801,45.525536,-122.478723,blue,30.0
5603492,Albertsons,4541 Campus Dr,Irvine,CA,92612,(949) 854-8282,33.650175,-117.831344,blue,30.0
5603195,Albertsons,4550 E Chapman Ave,Orange,CA,92869,(714) 771-3139,33.786781,-117.804397,blue,30.0
5603451,Albertsons,4621 Ne Sunset Blvd,Renton,WA,98059,(425) 271-2564,47.503688,-122.1573,blue,30.0
47818739,Albertsons,4657 S Eagle Rd,Meridian,ID,83642,(208) 272-9727,43.56239409,-116.356577,blue,30.0
5603211,Albertsons,4700 N Eagle Rd,Boise,ID,83713,(208) 939-5145,43.647404,-116.352524,blue,30.0
5603468,Albertsons,4740 Royal Ave,Eugene,OR,97402,(541) 688-6497,44.068711,-123.17934,blue,30.0
5603445,Albertsons,480 Northwest Pkwy,Azle,TX,76020,(817) 270-1116,32.901242,-97.54444,blue,30.0
5603322,Albertsons,4800 Blue Diamond Rd,Las Vegas,NV,89139,(702) 260-0318,36.035099,-115.206592,blue,30.0
5603499,Albertsons,4850 W Craig Rd,Las Vegas,NV,89130,(702) 515-1455,36.2404438,-115.2092021,blue,30.0
5603371,Albertsons,4857 Government St,Baton Rouge,LA,70806,(225) 216-7226,30.445041,-91.140187,blue,30.0
5603209,Albertsons,490 N 2nd E,Rexburg,ID,83440,(208) 356-0555,43.836279,-111.775839,red,30.0
5603543,Albertsons,4909 E Main St,Farmington,NM,87402,(505) 325-1486,36.76624,-108.146468,red,30.0
5603319,Albertsons,501 W Main St,Cut Bank,MT,59427,(406) 873-5035,48.640425,-112.336983,red,30.0
5603221,Albertsons,5015 Del Amo Blvd,Lakewood,CA,90712,(562) 634-0405,33.847676,-118.134267,blue,30.0
5603387,Albertsons,5040 W Cactus Rd,Glendale,AZ,85304,(602) 843-1871,33.597433,-112.16769,blue,30.0
5603290,Albertsons,5085 N La Canada Dr,Tucson,AZ,85704,(520) 696-0325,32.298664,-110.996567,blue,30.0
5603200,Albertsons,5100 W Overland Rd,Boise,ID,83705,(208) 336-1372,43.591726,-116.245161,blue,30.0
5603458,Albertsons,511 Central Ave,Billings,MT,59102,(406) 245-0115,45.770463,-108.52977,blue,30.0
5603378,Albertsons,519 S Haynes Ave,Miles City,MT,59301,(406) 232-2580,46.403312,-105.823879,red,30.0
5603139,Albertsons,5200 Montana Ave,El Paso,TX,79903,(915) 778-8996,31.782846,-106.426703,blue,30.0
5603203,Albertsons,528 N Main St,Mountain Home,ID,83647,(208) 587-5460,43.1346324,-115.6970398,red,30.0
80281483,Albertsons,5317 Grand Ave,Billings,MT,59106,(406) 371-2755,45.785297,-108.650959,blue,30.0
5603379,Albertsons,541 S Reino Rd,Newbury Park,CA,91320,(805) 499-7795,34.169628,-118.956504,blue,30.0
1064225072,Albertsons,54151 Us Hwy 2 E,Glasgow,MT,59230,(406) 228-4701,48.1995263,-106.6390269,red,30.0
5603535,Albertsons,543 Sweetwater Rd,Spring Valley,CA,91977,(619) 461-5700,32.708059,-117.008687,blue,30.0
5603475,Albertsons,55 Division Ave,Eugene,OR,97404,(541) 689-3960,44.100596,-123.128362,blue,30.0
5603143,Albertsons,5500 Boulder Hwy,Las Vegas,NV,89122,(702) 435-6777,36.101592,-115.054056,blue,30.0
5603291,Albertsons,5630 N Desert Blvd,El Paso,TX,79912,(915) 845-5069,31.864453,-106.575242,blue,30.0
5603437,Albertsons,5710 Broadway Blvd,Garland,TX,75043,(972) 240-7339,32.846037,-96.594287,blue,30.0
5603313,Albertsons,575 College Dr,Henderson,NV,89015,(702) 568-0115,36.013736,-114.96496,blue,30.0
5603483,Albertsons,5755 S Main St,Springfield,OR,97478,(541) 746-1653,44.044177,-122.927453,blue,30.0
5603506,Albertsons,5800 Yellowstone Rd,Cheyenne,WY,82009,(307) 637-8171,41.172639,-104.829934,blue,30.0
5603359,Albertsons,5801 Calle Real,Goleta,CA,93117,(805) 964-2318,34.44068357,-119.8261981,red,30.0
5603484,Albertsons,5850 Ne Prescott,Portland,OR,97218,(503) 284-5083,45.55462,-122.602735,red,30.0
5603408,Albertsons,5881 E Charleston Blvd,Las Vegas,NV,89142,(702) 457-1400,36.158195,-115.045081,blue,30.0
5603177,Albertsons,590 E 17th St,Idaho Falls,ID,83404,(208) 523-0950,43.481574,-112.021111,blue,30.0
5603423,Albertsons,5950 S Cooper St,Arlington,TX,76017,(817) 557-0185,32.649559,-97.136727,blue,30.0
5603159,Albertsons,5975 W Tropicana Ave,Las Vegas,NV,89103,(702) 889-2000,36.098792,-115.224005,blue,30.0
5603180,Albertsons,6045 Coffee Rd,Bakersfield,CA,93308,(661) 587-2870,35.41395,-119.093999,blue,30.0
5603403,Albertsons,611 N 27th St,Billings,MT,59101,(406) 248-7474,45.787813,-108.508542,blue,30.0
5603256,Albertsons,615 Sw Keck Dr,Mcminnville,OR,97128,(503) 474-1087,45.1964171,-123.205106,red,30.0
5603297,Albertsons,6220 Us Hwy 287,Arlington,TX,76001,(817) 478-8901,32.64407644,-97.18656377,blue,30.0
5603306,Albertsons,6240 Foothill Blvd,Tujunga,CA,91042,(818) 248-2745,34.240925,-118.267272,blue,30.0
5603438,Albertsons,6249 Rufe Snow Dr,Watauga,TX,76148,(817) 428-0541,32.859068,-97.239451,blue,30.0
5603420,Albertsons,6308 Lake Worth Blvd,Lake Worth,TX,76135,(817) 237-8124,32.811082,-97.422322,blue,30.0
5603156,Albertsons,640 Hwy 16,Emmett,ID,83617,(208) 365-4420,43.8624564,-116.4912509,blue,30.0
5603531,Albertsons,655 14th St,San Diego,CA,92101,(619) 237-1247,32.71207006,-117.1513545,blue,30.0
5603216,Albertsons,6560 S Federal Way,Boise,ID,83716,(208) 429-1084,43.542882,-116.153751,blue,30.0
5603559,Albertsons,6600 E Grant Rd,Tucson,AZ,85715,(520) 885-6109,32.247765,-110.851942,blue,30.0
5603471,Albertsons,6601 Quail Hill Pkwy,Irvine,CA,92603,(949) 509-6109,33.655922,-117.778289,blue,30.0
5603155,Albertsons,670 Main St,Billings,MT,59105,(406) 245-8792,45.810565,-108.473331,blue,30.0
5603443,Albertsons,6700 W Freeway,Fort Worth,TX,76116,(817) 377-8074,32.736949,-97.433047,blue,30.0
12060137,Albertsons,6730 N Hualapai Way,Las Vegas,NV,89149,(702) 670-4942,36.2837277,-115.3129919,blue,30.0
5603419,Albertsons,6755 Westminster Blvd,Westminster,CA,92683,(714) 898-3668,33.76129659,-118.0091778,blue,30.0
5603548,Albertsons,6885 E Lake Mead Blvd,Las Vegas,NV,89156,(702) 453-0845,36.194703,-115.024314,blue,30.0
5603560,Albertsons,6965 N Hayden Rd,Scottsdale,AZ,85250,(480) 991-9707,33.537481,-111.906659,blue,30.0
5603549,Albertsons,6999 Jackrabbit Ln,Belgrade,MT,59714,(406) 388-0901,45.771702,-111.187185,blue,30.0
5603325,Albertsons,700 E Avalon St,Kuna,ID,83634,(208) 922-9834,43.489585,-116.405444,blue,30.0
5603385,Albertsons,7022 N Mesa St,El Paso,TX,79912,(915) 584-9460,31.8371869,-106.5516859,blue,30.0
5603202,Albertsons,7070 Archibald Ave,Corona,CA,92880,(951) 279-0333,33.959366,-117.591672,blue,30.0
5603550,Albertsons,7075 W Ann Rd,Las Vegas,NV,89130,(702) 839-2727,36.2609353,-115.2477717,blue,30.0
5603512,Albertsons,7090 Broadway,Lemon Grove,CA,91945,(619) 463-4418,32.7438052,-117.0453883,blue,30.0
5603192,Albertsons,7100 W State St,Boise,ID,83714,(208) 342-2756,43.668781,-116.277811,blue,30.0
5603350,Albertsons,7127 Hollister Ave #27,Goleta,CA,93117,(805) 968-3558,34.42776335,-119.8765165,blue,30.0
5603198,Albertsons,715 12th Ave S,Nampa,ID,83651,(208) 466-2481,43.57438006,-116.5669057,blue,30.0
5603150,Albertsons,7151 W Craig Rd,Las Vegas,NV,89129,(702) 839-9034,36.2381476,-115.2502461,blue,30.0
5603534,Albertsons,720 3rd Ave,Chula Vista,CA,91910,(619) 498-5160,32.62659,-117.075233,blue,30.0
5603242,Albertsons,7201 Boulder Ave,Highland,CA,92346,(909) 425-9100,34.12384,-117.194137,blue,30.0
5603146,Albertsons,7201 Yorktown Ave,Huntington Beach,CA,92648,(714) 536-6449,33.680957,-118.002804,blue,30.0
5603399,Albertsons,7271 S Eastern Ave,Las Vegas,NV,89119,(702) 269-7166,36.05796,-115.120079,blue,30.0
5603171,Albertsons,730 Quintana Rd,Morro Bay,CA,93442,(805) 772-0670,35.367501,-120.84444,blue,30.0
5603557,Albertsons,7300 N La Cholla Blvd,Tucson,AZ,85741,(520) 575-0993,32.339237,-111.011537,blue,30.0
5603273,Albertsons,7350 S Rainbow Blvd,Las Vegas,NV,89139,(702) 739-1033,36.054751,-115.24176,blue,30.0
5603412,Albertsons,7400 Oakmont Blvd,Fort Worth,TX,76132,(817) 423-9556,32.662744,-97.419965,blue,30.0
5603167,Albertsons,745 N Dixie Dr,Saint George,UT,84770,(435) 688-7156,37.121021,-113.624747,red,30.0
5603357,Albertsons,74590 Hwy 111,Palm Desert,CA,92260,(760) 346-2566,33.722768,-116.363836,blue,30.0
5603488,Albertsons,7500 Sw Baseline Rd,Hillsboro,OR,97123,(503) 591-7557,45.51482975,-122.9039142,blue,30.0
5603163,Albertsons,7515 Perkins Rd,Baton Rouge,LA,70808,(225) 769-6100,30.39672585,-91.11008211,blue,30.0
5603181,Albertsons,7676 Firestone Blvd,Downey,CA,90241,(562) 869-9670,33.945267,-118.143997,red,30.0
5603172,Albertsons,775 S Tucker Rd,Tehachapi,CA,93561,(661) 823-7090,35.125769,-118.469619,red,30.0
5603329,Albertsons,7900 White Ln,Bakersfield,CA,93309,(661) 836-9691,35.319223,-119.090396,blue,30.0
5868964,Albertsons,7975 Blue Diamond Rd,Las Vegas,NV,89178,(702) 614-4221,36.01853,-115.264909,blue,30.0
5603285,Albertsons,8035 N 19th Ave,Phoenix,AZ,85021,(602) 678-0895,33.554053,-112.099011,blue,30.0
5603252,Albertsons,804 Avenida Pico,San Clemente,CA,92673,(949) 492-1755,33.442944,-117.614196,blue,30.0
5603224,Albertsons,810 S State College Blvd,Anaheim,CA,92806,(714) 533-4790,33.831271,-117.888626,blue,30.0
5603304,Albertsons,8200 E Stockdale Hwy,Bakersfield,CA,93311,(661) 833-6071,35.355504,-119.093319,blue,30.0
5603564,Albertsons,8240 W Deer Valley Rd,Peoria,AZ,85382,(623) 572-5744,33.682683,-112.236524,blue,30.0
5603442,Albertsons,833 Ne Alsbury Blvd,Burleson,TX,76028,(817) 447-9106,32.564446,-97.32154,blue,30.0
5603235,Albertsons,8350 W Cheyenne Ave,Las Vegas,NV,89129,(702) 395-2700,36.219701,-115.275205,blue,30.0
5603362,Albertsons,840 E Hobson Way,Blythe,CA,92225,(760) 922-4099,33.609464,-114.587213,red,30.0
5603396,Albertsons,8410 Farm Rd,Las Vegas,NV,89131,(702) 658-2030,36.300361,-115.279929,blue,30.0
5603260,Albertsons,8440 E Chapman Ave,Orange,CA,92869,(714) 771-6996,33.791809,-117.763491,blue,30.0
5603439,Albertsons,850 E Loop 820,Fort Worth,TX,76112,(817) 451-0306,32.7672814,-97.2152349,blue,30.0
5603241,Albertsons,861 E Warner Rd,Gilbert,AZ,85296,(480) 558-0105,33.333942,-111.77189,blue,30.0
5603276,Albertsons,8650 Lake Murray Blvd,San Diego,CA,92119,(619) 697-8896,32.802686,-117.012841,blue,30.0
5603307,Albertsons,8850 Foothill Blvd,Rancho Cucamonga,CA,91730,(909) 484-7237,34.108405,-117.612205,blue,30.0
5603147,Albertsons,8880 Valley View St,Buena Park,CA,90620,(714) 236-8200,33.833704,-118.027216,blue,30.0
5603515,Albertsons,8920 Fletcher Pkwy,La Mesa,CA,91942,(619) 667-4343,32.785795,-117.005347,blue,30.0
5603253,Albertsons,8938 Trautwein Rd,Riverside,CA,92508,(951) 656-6603,33.8903082,-117.3228998,red,30.0
5603227,Albertsons,8950 W Bell Rd,Peoria,AZ,85382,(623) 876-8103,33.6398357,-112.2516279,blue,30.0
5603212,Albertsons,900 W Idaho St,Kalispell,MT,59901,(406) 257-7127,48.199697,-114.329208,red,30.0
5603363,Albertsons,9022 Balboa Blvd,Northridge,CA,91325,(818) 894-6415,34.2344993,-118.501522,blue,30.0
5603206,Albertsons,909 E Parkcenter Blvd,Boise,ID,83706,(208) 345-3180,43.581132,-116.172128,blue,30.0
5603342,Albertsons,910 N Phoenix Rd,Medford,OR,97504,(541) 770-7050,42.316839,-122.815111,blue,30.0
5603161,Albertsons,911 N Main St,Hailey,ID,83333,(208) 788-6709,43.527615,-114.322233,red,30.0
5603294,Albertsons,915 Redcliffs Dr,Washington,UT,84780,(435) 628-0424,37.12547602,-113.5245353,blue,30.0
5603138,Albertsons,9243 E Baseline Rd,Mesa,AZ,85209,(480) 986-3060,33.37781,-111.6335399,blue,30.0
5603321,Albertsons,927 S China Lake Blvd,Ridgecrest,CA,93555,(760) 384-4015,35.60472,-117.674249,blue,30.0
5603432,Albertsons,9300 Clifford St,Fort Worth,TX,76108,(817) 246-3366,32.766259,-97.477995,blue,30.0
5603349,Albertsons,940 N Tustin Ave,Orange,CA,92867,(714) 633-2570,33.80332129,-117.8379534,blue,30.0
5603529,Albertsons,9560 Winter Gardens Blvd,Lakeside,CA,92040,(619) 561-5521,32.851525,-116.932134,blue,30.0
5603388,Albertsons,9595 E Broadway,Tucson,AZ,85748,(520) 751-7699,32.221489,-110.787953,blue,30.0
5603517,Albertsons,9650 Airline Hwy,Baton Rouge,LA,70815,(225) 926-9304,30.432298,-91.08294,blue,30.0
5603394,Albertsons,9725 S Maryland Pkwy,Las Vegas,NV,89183,(702) 616-1946,36.012068,-115.13798,blue,30.0
5603522,Albertsons,9831 Campo Rd,Spring Valley,CA,91977,(619) 462-6290,32.747011,-116.98408,blue,30.0
5603373,Albertsons,9960 Bluebonnet Blvd,Baton Rouge,LA,70810,(225) 768-7775,30.35572741,-91.11087737,blue,30.0
11574196,Albertsons Market Street,3499 E Fairview Ave,Meridian,ID,83642,(208) 605-3752,43.618096,-116.351626,blue,30.0
5603600,Carrs,11409 Business Park Blvd,Eagle River,AK,99577,(907) 696-9400,61.32462974,-149.5728734,red,30.0
5603604,Carrs,1501 Huffman Rd,Anchorage,AK,99515,(907) 339-1300,61.10977736,-149.8539499,blue,30.0
5603599,Carrs,1650 W Northern Lights Blvd,Anchorage,AK,99517,(907) 339-0500,61.19419999,-149.9149953,blue,30.0
5603606,Carrs,1725 Abbott Rd,Anchorage,AK,99507,(907) 339-2800,61.14241194,-149.8469608,blue,30.0
14803195,Carrs,2920 Seward Hwy,Anchorage,AK,99503,(907) 339-0600,61.19386588,-149.8713691,blue,30.0
5603603,Carrs,4000 W Dimond Blvd,Anchorage,AK,99502,(907) 339-1200,61.13633369,-149.9530165,blue,30.0
5603601,Carrs,5600 Debarr Rd,Anchorage,AK,99504,(907) 339-0900,61.2083238,-149.7769149,blue,30.0
5603602,Carrs,595 E Parks Hwy,Wasilla,AK,99654,(907) 352-1100,61.58264874,-149.4366022,red,30.0
5603597,Carrs,664 E Palmer-wasilla Hwy,Palmer,AK,99645,(907) 761-1400,61.598211,-149.126903,blue,30.0
5603605,Carrs,7731 E Northern Lights Blvd,Anchorage,AK,99504,(907) 339-1700,61.19651335,-149.7359823,blue,30.0
19248183,Jewel-osco,10090 Hwy 47,Huntley,IL,60142,(847) 802-3357,42.18401555,-88.41925435,blue,30.0
6362109,Jewel-osco,102 W Division St,Chicago,IL,60610,(312) 397-1130,41.90409205,-87.63176819,blue,30.0
5603786,Jewel-osco,10203 W Grand Ave,Franklin Park,IL,60131,(847) 455-7711,41.9291669,-87.88050234,blue,30.0
5603639,Jewel-osco,103 S Randall Rd,Algonquin,IL,60102,(847) 854-7020,42.17470054,-88.33307331,blue,30.0
5603705,Jewel-osco,1040 Summit Ave,Elgin,IL,60120,(847) 622-8112,42.04794552,-88.2528581,blue,30.0
5603707,Jewel-osco,1069 N Roselle Rd,Hoffman Estates,IL,60169,(847) 882-3210,42.04776927,-88.07771786,blue,30.0
5603779,Jewel-osco,107 Avenue Of The Cities,East Moline,IL,61244,(309) 751-0935,41.49160412,-90.45926057,red,30.0
5603766,Jewel-osco,1127 S York Rd,Bensenville,IL,60106,(630) 238-0170,41.93230261,-87.93774605,blue,30.0
5603731,Jewel-osco,1128 Chicago Ave,Evanston,IL,60202,(847) 869-7950,42.03936187,-87.68073795,blue,30.0
5603680,Jewel-osco,1148 Ogden Ave,Downers Grove,IL,60515,(630) 963-0645,41.80968808,-88.0137275,blue,30.0
5603675,Jewel-osco,1150 W Maple Ave,Mundelein,IL,60060,(847) 970-9250,42.27740503,-88.02074097,blue,30.0
5603793,Jewel-osco,1151 S Roselle Rd,Schaumburg,IL,60193,(847) 891-8388,42.00637535,-88.07801931,blue,30.0
5603797,Jewel-osco,1156 Maple Ave,Lisle,IL,60532,(630) 964-5166,41.78702528,-88.07557739,blue,30.0
5603699,Jewel-osco,1157 N Eola Rd,Aurora,IL,60502,(630) 851-1669,41.78004428,-88.23838044,red,30.0
5603650,Jewel-osco,11730 S Marshfield Ave,Chicago,IL,60643,(773) 568-8157,41.68029679,-87.66460011,blue,30.0
5603702,Jewel-osco,1177 S Main St,Lombard,IL,60148,(630) 953-1390,41.86117752,-88.0153851,blue,30.0
5603693,Jewel-osco,119 S Randall Rd,Batavia,IL,60510,(630) 879-6622,41.84820614,-88.3427045,blue,30.0
5603782,Jewel-osco,1200 W Boughton Rd,Bolingbrook,IL,60440,(630) 226-1892,41.70506858,-88.12408179,blue,30.0
5603681,Jewel-osco,12001 S Pulaski Rd,Alsip,IL,60803,(708) 371-3460,41.67417947,-87.71801234,blue,30.0
5603688,Jewel-osco,1202 State St,Lemont,IL,60439,(630) 243-1925,41.65552395,-88.00202314,blue,30.0
5603728,Jewel-osco,122 N Vail Ave,Arlington Heights,IL,60005,(847) 398-1430,42.08432575,-87.98548333,blue,30.0
5603713,Jewel-osco,1220 S Ashland Ave,Chicago,IL,60608,(312) 733-0153,41.86594202,-87.66858118,blue,30.0
5603714,Jewel-osco,1224 S Wabash Ave,Chicago,IL,60605,(312) 663-0580,41.86628534,-87.62626078,blue,30.0
5603628,Jewel-osco,1227 Naper Blvd,Naperville,IL,60540,(630) 961-9050,41.7514347,-88.11698986,blue,30.0
5603717,Jewel-osco,125 E Stearns Rd,Bartlett,IL,60103,(630) 540-0856,41.97133516,-88.18284953,blue,30.0
5603644,Jewel-osco,1250 W Main St,West Dundee,IL,60118,(847) 428-3355,42.10054368,-88.29997301,blue,30.0
5603649,Jewel-osco,127 E Ogden Ave,Naperville,IL,60563,(630) 420-1818,41.78703568,-88.14517193,blue,30.0
5603806,Jewel-osco,1276 N Main St,Crown Point,IN,46307,(219) 662-0080,41.43195767,-87.36272855,red,30.0
5603674,Jewel-osco,12803 S Harlem Ave,Palos Heights,IL,60463,(708) 671-1568,41.6590704,-87.79468087,blue,30.0
5603800,Jewel-osco,1300 S Milwaukee Ave,Libertyville,IL,60048,(847) 816-8200,42.26235781,-87.947143,red,30.0
5603629,Jewel-osco,1307 N 2nd St,Clinton,IA,52732,(563) 243-6995,41.8587917,-90.18415762,red,30.0
5603678,Jewel-osco,1312 John Deere Expy,Silvis,IL,61282,(309) 792-5955,41.4952294,-90.4075638,blue,30.0
5603701,Jewel-osco,1320 Sycamore Rd,Dekalb,IL,60115,(815) 758-5478,41.94251856,-88.73676304,red,30.0
5603723,Jewel-osco,13200 Village Green Dr,Huntley,IL,60142,(847) 961-5597,42.13650922,-88.42902193,blue,30.0
5603626,Jewel-osco,1340 Patriot Blvd,Glenview,IL,60026,(847) 657-9130,42.07852891,-87.81935938,blue,30.0
5603794,Jewel-osco,1340 S Canal St,Chicago,IL,60607,(312) 666-5495,41.86423011,-87.63992903,blue,30.0
5603637,Jewel-osco,1341 N Paulina St,Chicago,IL,60622,(773) 342-3410,41.90657397,-87.66940932,blue,30.0
5603633,Jewel-osco,13460 S Rt 59,Plainfield,IL,60585,(815) 577-2605,41.63806979,-88.20577748,blue,30.0
5603740,Jewel-osco,1350 Us Route 12,Fox Lake,IL,60020,(847) 973-9075,42.3666276,-88.17265183,blue,30.0
5603706,Jewel-osco,140 W Lake St,Addison,IL,60101,(630) 543-0521,41.93491839,-87.992558,blue,30.0
5603727,Jewel-osco,1400 21st St,Zion,IL,60099,(847) 746-8138,42.45758321,-87.82836278,blue,30.0
5603627,Jewel-osco,1401 W Jefferson St,Joliet,IL,60435,(815) 725-9880,41.52500635,-88.11603718,blue,30.0
5603778,Jewel-osco,1414 N Division St,Morris,IL,60450,(815) 942-2374,41.37231424,-88.4235055,red,30.0
5603643,Jewel-osco,14200 S Bell Rd,Homer Glen,IL,60491,(708) 301-0984,41.6307,-87.93279335,blue,30.0
5603768,Jewel-osco,145 S Eastwood Dr,Woodstock,IL,60098,(815) 206-0499,42.3153595,-88.43439661,blue,30.0
5603761,Jewel-osco,1485 Palatine Rd,Hoffman Estates,IL,60192,(847) 202-0586,42.10908667,-88.11613923,blue,30.0
5603739,Jewel-osco,150 W Main St,Barrington,IL,60010,(847) 381-4525,42.15521672,-88.13764237,blue,30.0
5603729,Jewel-osco,1500 S Lee St,Des Plaines,IL,60018,(847) 296-7786,42.02577685,-87.89559631,blue,30.0
5603657,Jewel-osco,1501 E Algonquin Rd,Algonquin,IL,60102,(847) 658-5635,42.15862139,-88.27461323,blue,30.0
5603763,Jewel-osco,1501 S Lake St,Mundelein,IL,60060,(847) 566-6161,42.24373572,-87.99281882,blue,30.0
5603751,Jewel-osco,1517 Sheridan Rd,Wilmette,IL,60091,(847) 256-7790,42.086566,-87.7011343,blue,30.0
5603715,Jewel-osco,153 Schiller St,Elmhurst,IL,60126,(630) 530-8790,41.901646,-87.9370036,blue,30.0
5603654,Jewel-osco,1537 N Larkin,Joliet,IL,60435,(815) 725-4407,41.55089398,-88.12738074,blue,30.0
5603749,Jewel-osco,16 S Waukegan Rd,Deerfield,IL,60015,(847) 272-7420,42.15153601,-87.83687033,blue,30.0
5603744,Jewel-osco,1600 Deerfield Rd,Highland Park,IL,60035,(847) 579-0872,42.17763817,-87.82170916,blue,30.0
5603811,Jewel-osco,1655 E 95th St,Chicago,IL,60617,(773) 731-9086,41.72026674,-87.58273691,blue,30.0
5603658,Jewel-osco,1660 Larkin Ave,Elgin,IL,60123,(847) 695-7573,42.03484003,-88.319213,blue,30.0
5603775,Jewel-osco,16625 W 159th St,Lockport,IL,60441,(815) 834-9516,41.59601321,-88.02467108,blue,30.0
5603682,Jewel-osco,17117 S Harlem Ave,Tinley Park,IL,60477,(708) 532-7414,41.57935027,-87.79172257,red,30.0
5603799,Jewel-osco,1759 W Ogden Ave,Naperville,IL,60540,(630) 637-0490,41.76300465,-88.18829206,blue,30.0
5603771,Jewel-osco,1763 W Howard St,Chicago,IL,60626,(773) 274-1287,42.0175741,-87.67450038,blue,30.0
5603709,Jewel-osco,177 E Roosevelt Rd,West Chicago,IL,60185,(630) 293-5350,41.86602217,-88.20264051,blue,30.0
5603689,Jewel-osco,17705 S Halsted St,Homewood,IL,60430,(708) 957-1810,41.56776814,-87.63380186,blue,30.0
5603691,Jewel-osco,17930 Wolf Rd,Orland Park,IL,60467,(708) 479-1573,41.56330215,-87.89324887,blue,30.0
5603745,Jewel-osco,1860 S Arlington Heights Rd,Arlington Heights,IL,60005,(847) 593-1730,42.05228028,-87.98392061,blue,30.0
5603790,Jewel-osco,1952 W Galena Blvd,Aurora,IL,60506,(630) 859-1212,41.76353171,-88.36476563,blue,30.0
5603677,Jewel-osco,199 Brookforest Ave,Shorewood,IL,60404,(815) 730-3944,41.52258238,-88.20224129,blue,30.0
5603690,Jewel-osco,20 S Weber Rd,Romeoville,IL,60446,(815) 293-0665,41.6233188,-88.12604249,blue,30.0
5603694,Jewel-osco,20 W Biesterfield,Elk Grove Village,IL,60007,(847) 593-1112,42.00540564,-88.00503295,blue,30.0
5603635,Jewel-osco,2010 1st St A,Moline,IL,61265,(309) 797-0558,41.49173647,-90.53508243,blue,30.0
5603781,Jewel-osco,2021 E Laraway Rd,New Lenox,IL,60451,(815) 463-4950,41.48595015,-87.92504103,blue,30.0
5603670,Jewel-osco,2031 N Main St,Wheaton,IL,60187,(630) 682-0220,41.8865625,-88.1061021,blue,30.0
5603777,Jewel-osco,2051 Ridge Rd,Minooka,IL,60447,(815) 467-0924,41.42014017,-88.27277793,blue,30.0
5603708,Jewel-osco,2073 Prairie St,St Charles,IL,60174,(630) 584-7228,41.90234853,-88.33793499,blue,30.0
5603780,Jewel-osco,2103 N Veterans Pkwy,Bloomington,IL,61704,(309) 664-1320,40.50983435,-88.95004938,red,30.0
5603796,Jewel-osco,21164 S La Grange Rd,Frankfort,IL,60423,(815) 464-5352,41.50488101,-87.85340881,blue,30.0
5603789,Jewel-osco,2128 S Mannheim Rd,Westchester,IL,60154,(708) 531-9560,41.84973093,-87.8822488,blue,30.0
5603668,Jewel-osco,2164 Bloomingdale Rd,Glendale Heights,IL,60139,(630) 893-2770,41.93844265,-88.08218572,blue,30.0
5603791,Jewel-osco,217 Irving Park Rd,Streamwood,IL,60107,(630) 837-6015,42.01121179,-88.17789823,blue,30.0
5603722,Jewel-osco,220 W Peace Rd,Sycamore,IL,60178,(815) 895-5276,42.0137365,-88.67824629,blue,30.0
5603631,Jewel-osco,2203 E Oakland Ave,Bloomington,IL,61701,(309) 663-4012,40.472269,-88.960132,blue,30.0
5603773,Jewel-osco,2317 75th St,Woodridge,IL,60517,(630) 985-9380,41.74938861,-88.03839209,blue,30.0
5603669,Jewel-osco,234 E Veterans Pkwy,Yorkville,IL,60560,(630) 553-1617,41.6555022,-88.44047181,blue,30.0
5603726,Jewel-osco,2401 Route 12,Spring Grove,IL,60081,(815) 675-6716,42.43562973,-88.24386938,blue,30.0
5603807,Jewel-osco,2480 Route 59,Plainfield,IL,60586,(815) 254-3291,41.56641893,-88.1980604,blue,30.0
5603762,Jewel-osco,2485 Howard St,Evanston,IL,60202,(847) 328-9791,42.02100737,-87.70796193,blue,30.0
5603692,Jewel-osco,2501 Schaumburg Rd,Schaumburg,IL,60194,(847) 524-8960,42.02296121,-88.14327182,blue,30.0
5603730,Jewel-osco,2502 N Waukegan Rd,Glenview,IL,60025,(847) 486-0864,42.09966628,-87.80093042,blue,30.0
5603718,Jewel-osco,2520 N Narragansett Ave,Chicago,IL,60639,(773) 637-1631,41.9262215,-87.78633434,blue,30.0
5603788,Jewel-osco,2540 Us-30,Oswego,IL,60543,(630) 892-0029,41.717566,-88.318067,blue,30.0
5603651,Jewel-osco,2550 N Clybourn Ave,Chicago,IL,60614,(773) 348-6426,41.92723674,-87.67430887,blue,30.0
1080520893,Jewel-osco,2707 E Division St,Diamond,IL,60416,(779) 340-9350,41.286836,-88.24579,blue,30.0
5603653,Jewel-osco,2775 Pfingsten Rd,Glenview,IL,60026,(847) 564-8550,42.10472751,-87.84582926,blue,30.0
5603798,Jewel-osco,2855 95th St,Naperville,IL,60564,(630) 904-5119,41.71234,-88.203404,blue,30.0
5603734,Jewel-osco,2940 N Ashland Ave,Chicago,IL,60657,(773) 871-8242,41.93533,-87.670255,blue,30.0
5603697,Jewel-osco,30 Danada Square W,Wheaton,IL,60189,(630) 668-1172,41.83156675,-88.10526536,blue,30.0
5603765,Jewel-osco,3000 Kirchoff Rd,Rolling Meadows,IL,60008,(847) 398-2060,42.07899949,-88.01753992,blue,30.0
5603672,Jewel-osco,303 Holmes Ave,Clarendon Hills,IL,60514,(630) 654-3455,41.7873229,-87.94992462,blue,30.0
5603646,Jewel-osco,3124 N Lewis Ave,Waukegan,IL,60087,(847) 249-1130,42.4092104,-87.8571239,blue,30.0
5603634,Jewel-osco,3128 W 103rd St,Chicago,IL,60655,(773) 238-4444,41.706732,-87.700103,blue,30.0
5603803,Jewel-osco,3153 W 183rd,Homewood,IL,60430,(708) 957-3131,41.55591614,-87.69321579,blue,30.0
5603683,Jewel-osco,3220 Chicago Rd,South Chicago Heights,IL,60411,(708) 755-7372,41.47968593,-87.63895138,blue,30.0
5603663,Jewel-osco,3243 W 115th St,Merrionette Park,IL,60803,(708) 389-9001,41.683127,-87.702299,blue,30.0
5603703,Jewel-osco,33 E St Charles Rd,Villa Park,IL,60181,(630) 832-0400,41.88858388,-87.97820516,blue,30.0
5603754,Jewel-osco,333 E Euclid Ave,Mount Prospect,IL,60056,(847) 394-9390,42.08735504,-87.9309562,blue,30.0
5603810,Jewel-osco,3400 N Western Ave,Chicago,IL,60618,(773) 327-1204,41.94351873,-87.69010071,blue,30.0
5603711,Jewel-osco,343 W Irving Park Rd,Wood Dale,IL,60191,(630) 773-4326,41.96710878,-87.99082358,blue,30.0
5603792,Jewel-osco,345 S Rand Rd,Lake Zurich,IL,60047,(847) 438-2720,42.19141994,-88.11048689,blue,30.0
5603769,Jewel-osco,3531 N Broadway St,Chicago,IL,60657,(773) 871-1054,41.946834,-87.646271,blue,30.0
5603750,Jewel-osco,3570 N Elston Ave,Chicago,IL,60618,(773) 583-9150,41.94512324,-87.70848427,blue,30.0
5603774,Jewel-osco,3630 N Southport Ave,Chicago,IL,60613,(773) 327-2330,41.94814278,-87.6643391,blue,30.0
5603667,Jewel-osco,3644 S Archer Ave,Chicago,IL,60609,(773) 523-6923,41.82777009,-87.68274743,blue,30.0
5603721,Jewel-osco,370 N Des Plaines St,Chicago,IL,60661,(312) 243-2710,41.88835,-87.645063,blue,30.0
5603712,Jewel-osco,375 Randall Rd,South Elgin,IL,60177,(847) 608-1460,41.98680194,-88.33887527,blue,30.0
5603808,Jewel-osco,3795 Orchard Rd,Oswego,IL,60543,(630) 551-1347,41.68349472,-88.3833307,blue,30.0
5603804,Jewel-osco,4 E Ogden Ave,Westmont,IL,60559,(630) 323-9885,41.81151396,-87.9741329,blue,30.0
5603735,Jewel-osco,4042 W Foster Ave,Chicago,IL,60630,(773) 583-8080,41.9762819,-87.72988725,blue,30.0
5603743,Jewel-osco,411 N Green Bay Rd,Wilmette,IL,60091,(847) 256-7420,42.07265165,-87.70652136,blue,30.0
5603647,Jewel-osco,4222 W Elm St,Mchenry,IL,60050,(815) 344-1408,42.34786372,-88.28008037,blue,30.0
5603753,Jewel-osco,423 E Dundee Rd,Palatine,IL,60074,(847) 991-4545,42.13793839,-88.03276364,blue,30.0
5603772,Jewel-osco,424 W Division St,Chicago,IL,60610,(312) 642-2709,41.90517751,-87.63939841,blue,30.0
5603741,Jewel-osco,4250 N Lincoln Ave,Chicago,IL,60618,(773) 472-6171,41.95848966,-87.6824206,blue,30.0
5603742,Jewel-osco,4355 N Sheridan Rd,Chicago,IL,60613,(773) 477-7151,41.96130234,-87.65344353,blue,30.0
5603671,Jewel-osco,438 W Madison St,Oak Park,IL,60302,(708) 383-7111,41.8802173,-87.78644734,blue,30.0
5603756,Jewel-osco,440 E Rand Rd,Arlington Heights,IL,60004,(847) 255-8735,42.11173536,-87.97664596,blue,30.0
5603784,Jewel-osco,443 E 34th St,Chicago,IL,60616,(312) 842-0667,41.83274718,-87.61457657,blue,30.0
5603630,Jewel-osco,446 S Washington Ave,Kankakee,IL,60901,(815) 935-2040,41.116127,-87.867676,red,30.0
5603737,Jewel-osco,45 S Plum Grove Rd,Palatine,IL,60067,(847) 991-1888,42.10906959,-88.04283131,blue,30.0
5603720,Jewel-osco,465 N Route 47,Sugar Grove,IL,60554,(630) 466-1493,41.77369138,-88.43909299,blue,30.0
5603648,Jewel-osco,4650 W 103rd St,Oak Lawn,IL,60453,(708) 636-2520,41.70675849,-87.73736775,blue,30.0
5603700,Jewel-osco,4660 W Irving Park Rd,Chicago,IL,60641,(773) 202-0211,41.9554721,-87.74491785,blue,30.0
5603641,Jewel-osco,4729 N Central Ave,Chicago,IL,60630,(773) 777-1142,41.96692431,-87.76668247,blue,30.0
5603755,Jewel-osco,4734 N Cumberland Ave,Chicago,IL,60656,(773) 625-2055,41.965549,-87.837975,blue,30.0
5603686,Jewel-osco,475 N Nelson Rd,New Lenox,IL,60451,(815) 462-0018,41.51754498,-87.98720447,blue,30.0
5603758,Jewel-osco,481 Busse Hwy,Park Ridge,IL,60068,(847) 696-0824,42.01574351,-87.83929255,blue,30.0
5603760,Jewel-osco,485 Ela Rd,Lake Zurich,IL,60047,(847) 438-7300,42.18934437,-88.10345282,blue,30.0
5603655,Jewel-osco,507 E Woodlawn Ave,La Grange Park,IL,60526,(708) 354-4643,41.82379777,-87.86819754,blue,30.0
5603684,Jewel-osco,5320 S Pulaski Rd,Chicago,IL,60632,(773) 284-7700,41.79597937,-87.72507283,blue,30.0
5603736,Jewel-osco,5343 N Broadway,Chicago,IL,60640,(773) 784-1922,41.97921614,-87.65930979,blue,30.0
5603770,Jewel-osco,547 W Liberty St,Wauconda,IL,60084,(847) 526-0964,42.25932865,-88.15221558,red,30.0
5603719,Jewel-osco,550 N State St,Chicago,IL,60654,(312) 527-2162,41.8920858,-87.6285396,blue,30.0
5603725,Jewel-osco,5516 N Clark St,Chicago,IL,60640,(773) 728-7730,41.9828066,-87.6691597,blue,30.0
5603805,Jewel-osco,5545 S Brainard Ave,Countryside,IL,60525,(708) 352-0120,41.789681,-87.877781,blue,30.0
5603660,Jewel-osco,5616 W 159th St,Oak Forest,IL,60452,(708) 614-6700,41.60430133,-87.75768654,blue,30.0
5603759,Jewel-osco,5667 W Touhy Ave,Niles,IL,60714,(847) 647-6880,42.011146,-87.768956,blue,30.0
5603710,Jewel-osco,599 E Roosevelt Rd,Glen Ellyn,IL,60137,(630) 858-9096,41.85850591,-88.0626002,blue,30.0
12033750,Jewel-osco,6014 S Cottage Grove,Chicago,IL,60637,(773) 358-4278,41.784543,-87.60728745,blue,30.0
5603776,Jewel-osco,6107 S Archer Ave,Chicago,IL,60638,(773) 735-0043,41.79385335,-87.77032652,blue,30.0
5603665,Jewel-osco,6140 Northwest Hwy,Crystal Lake,IL,60014,(815) 356-8628,42.22887838,-88.31841048,blue,30.0
5603785,Jewel-osco,6215 Main St,Downers Grove,IL,60516,(630) 969-3105,41.77413058,-88.00736278,blue,30.0
5603696,Jewel-osco,6430 W Irving Park Rd,Chicago,IL,60634,(773) 725-8900,41.95406721,-87.78780456,blue,30.0
5603724,Jewel-osco,6509 W Grand Ave,Gurnee,IL,60031,(847) 855-1991,42.38035897,-87.96587786,blue,30.0
5603666,Jewel-osco,652 Kirk Rd,St Charles,IL,60174,(630) 587-0847,41.92453658,-88.2731469,blue,30.0
5603662,Jewel-osco,655 Main St Nw,Bourbonnais,IL,60914,(815) 929-0560,41.160714,-87.8867,blue,30.0
5603767,Jewel-osco,696 Northwest Hwy,Cary,IL,60013,(847) 639-3599,42.21844064,-88.2558043,blue,30.0
5603698,Jewel-osco,7036 Roosevelt Rd,Oak Park,IL,60304,(708) 524-9660,41.86534703,-87.80058794,blue,30.0
5603645,Jewel-osco,7122 40th St,Stickney,IL,60402,(708) 484-8421,41.820673,-87.801206,blue,30.0
5603679,Jewel-osco,716 Ridge Rd,Munster,IN,46321,(219) 836-1118,41.55970635,-87.50969603,blue,30.0
5603636,Jewel-osco,7329 S Cass Ave,Darien,IL,60561,(630) 960-3177,41.7538289,-87.97203407,blue,30.0
5603642,Jewel-osco,7342 W Foster Ave,Chicago,IL,60656,(773) 775-6866,41.97516579,-87.81099196,blue,30.0
5603632,Jewel-osco,747 Indian Boundary Rd,Chesterton,IN,46304,(219) 926-7172,41.61805125,-87.04058049,red,30.0
5603659,Jewel-osco,750 Army Trail Rd,Carol Stream,IL,60188,(630) 289-3700,41.9394053,-88.14624438,blue,30.0
5603695,Jewel-osco,7525 W Lake St,River Forest,IL,60305,(708) 771-0044,41.8878444,-87.81336341,blue,30.0
5603656,Jewel-osco,7530 S Stony Island Ave,Chicago,IL,60649,(773) 955-8150,41.7583301,-87.58777812,blue,30.0
5603802,Jewel-osco,763 E 162nd St,South Holland,IL,60473,(708) 596-1960,41.59999799,-87.59831244,blue,30.0
5603757,Jewel-osco,79 Mchenry Rd,Buffalo Grove,IL,60089,(847) 459-3070,42.15520516,-87.95773102,blue,30.0
5603738,Jewel-osco,7900 Milwaukee Ave,Niles,IL,60714,(847) 965-3925,42.02474287,-87.81402698,blue,30.0
5603787,Jewel-osco,7910 S Cicero Ave,Burbank,IL,60459,(708) 422-5252,41.7474066,-87.7423457,blue,30.0
5603716,Jewel-osco,800 N Main St,Elburn,IL,60119,(630) 365-4215,41.90118055,-88.47455196,blue,30.0
5603664,Jewel-osco,800 Nw Hwy 14,Fox River Grove,IL,60021,(847) 516-4315,42.1953485,-88.20995058,blue,30.0
5603704,Jewel-osco,800 W North Ave,Melrose Park,IL,60160,(708) 547-7974,41.90706905,-87.84280725,blue,30.0
5603640,Jewel-osco,805 Joliet St,Dyer,IN,46311,(219) 864-0078,41.49466818,-87.50786915,blue,30.0
5603752,Jewel-osco,819 S Elmhurst Rd,Des Plaines,IL,60016,(847) 956-1220,42.03674702,-87.93900451,blue,30.0
5603687,Jewel-osco,87 W 87th St,Chicago,IL,60620,(773) 487-8700,41.73525833,-87.62782493,blue,30.0
5603732,Jewel-osco,8730 W Dempster,Niles,IL,60714,(847) 298-6352,42.041011,-87.843654,blue,30.0
5603809,Jewel-osco,8801 S Ridgeland Ave,Oak Lawn,IL,60453,(708) 599-4500,41.73165303,-87.77894687,blue,30.0
5603746,Jewel-osco,885 E Belvidere Rd,Grayslake,IL,60030,(847) 543-8976,42.3356569,-88.02650333,blue,30.0
5603764,Jewel-osco,890 N Western Ave,Lake Forest,IL,60045,(847) 735-8018,42.25578146,-87.84157533,blue,30.0
5603733,Jewel-osco,900 E Rollins Rd,Round Lake,IL,60073,(847) 223-9201,42.38196763,-88.06067182,blue,30.0
5603676,Jewel-osco,901 S Cottage Ave,Normal,IL,61761,(309) 454-6089,40.50155,-89.012427,blue,30.0
5603795,Jewel-osco,922 N Green Bay Rd,Waukegan,IL,60085,(847) 662-0042,42.37395426,-87.8840033,blue,30.0
5603673,Jewel-osco,9350 W 159th St,Orland Park,IL,60462,(708) 403-6920,41.60367633,-87.84674188,blue,30.0
5603685,Jewel-osco,9400 S Ashland Ave,Chicago,IL,60620,(773) 238-2393,41.72297015,-87.6633907,blue,30.0
5603801,Jewel-osco,9424 S Pulaski Rd,Oak Lawn,IL,60453,(708) 423-0535,41.72113048,-87.72210717,blue,30.0
5603661,Jewel-osco,944 S York Rd,Elmhurst,IL,60126,(630) 834-0006,41.87044272,-87.93562065,red,30.0
5603747,Jewel-osco,9449 N Skokie Blvd,Skokie,IL,60077,(847) 677-3331,42.052941,-87.744743,blue,30.0
5603783,Jewel-osco,9528 S Roberts Rd,Hickory Hills,IL,60457,(708) 599-5514,41.71747838,-87.82051809,blue,30.0
5603652,Jewel-osco,9652 W 131st St,Palos Park,IL,60464,(708) 361-8880,41.65347492,-87.85627618,blue,30.0
5603748,Jewel-osco,966 Route 59,Antioch,IL,60002,(847) 395-7363,42.4768424,-88.10599203,blue,30.0
5603853,Pavilions,1000 Bayside Dr,Newport Beach,CA,92660,(949) 760-0975,33.61114318,-117.8928863,blue,30.0
5605133,Pavilions,1040 Coast Village Rd,Montecito,CA,93108,(805) 969-2112,34.422673,-119.651054,blue,30.0
5603856,Pavilions,1101 Pacific Coast Hwy,Seal Beach,CA,90740,(562) 370-1937,33.74401922,-118.0999595,blue,30.0
5603841,Pavilions,11030 Jefferson Blvd,Culver City,CA,90230,(310) 398-1945,33.99680608,-118.3937948,blue,30.0
5603842,Pavilions,1110 W Alameda Ave,Burbank,CA,91506,(818) 567-0257,34.16135162,-118.3135713,blue,30.0
5603843,Pavilions,1135 Lindero Canyon Rd,Thousand Oaks,CA,91362,(818) 597-1261,34.18410611,-118.7883572,blue,30.0
5603849,Pavilions,1213 Fair Oaks Ave,South Pasadena,CA,91030,(626) 799-2261,34.111573,-118.15117,blue,30.0
17590821,Pavilions,14845 Ventura Blvd,Sherman Oaks,CA,91403,(818) 922-6890,34.152766,-118.4567898,blue,30.0
5603834,Pavilions,21181 Newport Coast Dr,Newport Coast,CA,92657,(949) 718-4990,33.60679042,-117.8277232,blue,30.0
5603845,Pavilions,22451 Antonio Pkwy,Rancho Santa Margarita,CA,92688,(949) 858-0164,33.6369407,-117.5914867,blue,30.0
5603840,Pavilions,26022 Marguerite Pkwy,Mission Viejo,CA,92692,(949) 582-0672,33.58603616,-117.6576846,blue,30.0
5603835,Pavilions,2660 San Miguel Dr,Newport Beach,CA,92660,(949) 759-3880,33.62661094,-117.8484455,blue,30.0
5605228,Pavilions,27320 Alicia Pkwy,Laguna Niguel,CA,92677,(949) 448-9244,33.56611777,-117.7128194,blue,30.0
5603857,Pavilions,29211 Heathercliff Rd,Malibu,CA,90265,(310) 457-2401,34.02101613,-118.8103081,blue,30.0
5603858,Pavilions,3100 W Balboa Blvd,Newport Beach,CA,92663,(949) 675-2395,33.61479611,-117.9311439,blue,30.0
5605247,Pavilions,3439 Via Montebello,Carlsbad,CA,92009,(760) 633-0114,33.081302,-117.232649,blue,30.0
5605143,Pavilions,3850 Valley Centre Dr,San Diego,CA,92130,(858) 793-4661,32.93927051,-117.2319132,blue,30.0
6197959,Pavilions,3901 Portola Pkwy,Irvine,CA,92602,(657) 273-5753,33.7349306,-117.7606762,red,30.0
5603837,Pavilions,4365 Glencoe Ave,Marina Del Rey,CA,90292,(310) 821-7208,33.9851574,-118.4397922,blue,30.0
5605249,Pavilions,515 W Washington St,San Diego,CA,92103,(619) 220-0195,32.749643,-117.168221,blue,30.0
5603836,Pavilions,600 N Pacific Coast Hwy,Laguna Beach,CA,92651,(949) 494-3020,33.54654209,-117.7935018,blue,30.0
5603847,Pavilions,6534 Platt Ave,West Hills,CA,91307,(818) 999-5939,34.18933252,-118.6415655,blue,30.0
5603852,Pavilions,7 Peninsula Ctr,Palos Verdes Peninsula,CA,90274,(310) 377-1994,33.776259,-118.375279,blue,30.0
5605138,Pavilions,715 Pier Ave,Hermosa Beach,CA,90254,(310) 374-4484,33.866014,-118.394457,blue,30.0
5603850,Pavilions,727 N Vine St,Los Angeles,CA,90038,(323) 461-4167,34.0845437,-118.3272185,blue,30.0
5605188,Pavilions,7544 Girard Ave,La Jolla,CA,92037,(858) 454-2620,32.84172893,-117.2736181,blue,30.0
5603851,Pavilions,820 Montana Ave,Santa Monica,CA,90403,(310) 395-1682,34.02795443,-118.4999916,blue,30.0
5603846,Pavilions,845 E California St,Pasadena,CA,91106,(626) 449-3968,34.13645,-118.1331243,blue,30.0
5603855,Pavilions,8969 Santa Monica Blvd,West Hollywood,CA,90069,(310) 595-1730,34.0836732,-118.3867875,blue,30.0
5603859,Pavilions,9467 W Olympic Blvd,Beverly Hills,CA,90212,(310) 553-5734,34.06016412,-118.399644,blue,30.0
5603453,Pavilions,989 Avenida Pico,San Clemente,CA,92673,(949) 369-5466,33.456543,-117.60351,blue,30.0
5603876,Randalls,10228 W Broadway St,Pearland,TX,77584,(281) 504-0273,29.5543164,-95.37921695,blue,30.0
5603868,Randalls,12850 Memorial Dr,Houston,TX,77024,(713) 365-6700,29.77385145,-95.55926157,red,30.0
5603877,Randalls,1400 Cypress Creek Rd,Cedar Park,TX,78613,(512) 506-9118,30.48277121,-97.82958856,red,30.0
5603860,Randalls,14610 Memorial Dr,Houston,TX,77079,(281) 497-0630,29.77184297,-95.60700271,blue,30.0
5603892,Randalls,18322 Clay Rd,Houston,TX,77084,(281) 855-9774,29.83278873,-95.68374731,blue,30.0
5603890,Randalls,1890 Fm 359 Rd,Richmond,TX,77406,(281) 238-8231,29.6220525,-95.74221304,blue,30.0
5603886,Randalls,2025 W Ben White Blvd,Austin,TX,78704,(512) 443-3083,30.22924406,-97.7901341,red,30.0
5603889,Randalls,2051 Gattis School Rd,Round Rock,TX,78664,(512) 246-0390,30.4950064,-97.65411861,blue,30.0
5603870,Randalls,2225 Louisiana St,Houston,TX,77002,(713) 331-1042,29.74894748,-95.37443072,blue,30.0
5603873,Randalls,2301 Ranch Rd 620 S,Lakeway,TX,78734,(512) 263-6420,30.34140911,-97.96620255,blue,30.0
5603879,Randalls,2727 Exposition Blvd,Austin,TX,78703,(512) 477-7196,30.30426689,-97.7638907,blue,30.0
5603864,Randalls,2931 Central City Blvd,Galveston,TX,77551,(409) 744-0413,29.26959942,-94.8300308,red,30.0
5603878,Randalls,2951 Marina Bay Dr Suite B,League City,TX,77573,(281) 538-2500,29.53862528,-95.06309582,red,30.0
5603867,Randalls,3131 W Holcombe Blvd,Houston,TX,77025,(713) 349-2150,29.70475518,-95.42583508,blue,30.0
5603881,Randalls,3300 Bee Caves Rd,West Lake Hills,TX,78746,(512) 327-1881,30.27536739,-97.79885598,blue,30.0
5603901,Randalls,3441 N Lakeline Blvd,Leander,TX,78641,(737) 843-3073,30.54304125,-97.86523763,blue,30.0
5603895,Randalls,5145 N Fm 620 Rd,Austin,TX,78732,(512) 266-3168,30.38922329,-97.88393098,blue,30.0
5603899,Randalls,5161 San Felipe St,Houston,TX,77056,(713) 964-3150,29.74888024,-95.46583755,blue,30.0
5603861,Randalls,5219 Fm 1960 W,Houston,TX,77069,(281) 440-1402,29.97986809,-95.50870649,blue,30.0
5603891,Randalls,525 S Fry Rd,Katy,TX,77450,(281) 579-3890,29.77956922,-95.71699951,blue,30.0
5603880,Randalls,5311 Balcones Dr,Austin,TX,78731,(512) 302-2500,30.33544133,-97.757991,blue,30.0
5603902,Randalls,5586 Weslayan St,Houston,TX,77005,(713) 668-4778,29.72186465,-95.44223612,blue,30.0
8824562,Randalls,5721 Williams Dr,Georgetown,TX,78633,(512) 942-6028,30.70325538,-97.74978748,blue,30.0
5603884,Randalls,8040 Mesa Dr,Austin,TX,78731,(512) 345-1825,30.37145592,-97.7583288,blue,30.0
5603894,Randalls,9660 Westheimer Rd,Houston,TX,77063,(713) 782-0982,29.73871999,-95.53721137,blue,30.0
5603874,Randalls,9911 Brodie Ln,Austin,TX,78748,(512) 282-5720,30.18407593,-97.84757428,blue,30.0
5604943,Shaw's,20 D'amante Dr,Concord,NH,03301,(603) 228-1440,43.22222084,-71.48987092,red,30.0
5604820,Shaw's,654 Route 22a,North Fair Haven,VT,05743,(802) 265-8100,43.60170838,-73.2760936,red,30.0
5604920,Shaw's,1 Chandler Dr,Bath,ME,04530,(207) 443-9179,43.90916216,-69.82915964,red,30.0
5604916,Shaw's,1 Orchard View Dr,Londonderry,NH,03053,(603) 432-8846,42.86267122,-71.35511884,blue,30.0
5604909,Shaw's,10 Benning Dr,West Lebanon,NH,03784,(603) 298-0388,43.63203143,-72.31557911,red,30.0
5604838,Shaw's,100 N Main St,Carver,MA,02330,(508) 866-2168,41.9238204,-70.80702743,red,30.0
5604929,Shaw's,100 Shaws Ln,Stratham,NH,03885,(603) 773-9994,42.99677896,-70.92768844,blue,30.0
5604876,Shaw's,1050 Willett Ave,Riverside,RI,02915,(401) 433-3180,41.760607,-71.343396,blue,30.0
5604836,Shaw's,1070 Iyannough Rd,Hyannis,MA,02601,(508) 775-7611,41.67627433,-70.30369213,red,30.0
5604936,Shaw's,1073 W Main St,Dover Foxcroft,ME,04426,(207) 564-3500,45.1831091,-69.25784417,red,30.0
5604854,Shaw's,11 Traders Way,Salem,MA,01970,(978) 741-8660,42.50171239,-70.92177804,blue,30.0
5604893,Shaw's,1108 State Rd,South Yarmouth,MA,02664,(508) 394-0995,41.6628455,-70.2020681,blue,30.0
5604849,Shaw's,114-128 Essex Center Dr,Peabody,MA,01960,(978) 532-5434,42.53949325,-70.94909695,blue,30.0
5604842,Shaw's,1150 Eastman Rd,Center Conway,NH,03813,(603) 356-5471,44.0151195,-71.11136465,red,30.0
5604860,Shaw's,115c Monkton Rd,Vergennes,VT,05491,(802) 877-3418,44.17341827,-73.24218772,red,30.0
5604938,Shaw's,1175 Main St,Clinton,MA,01510,(978) 368-0306,42.43405467,-71.68372823,blue,30.0
5604832,Shaw's,1177 Providence Rd,Whitinsville,MA,01588,(508) 234-0457,42.12569451,-71.64819164,blue,30.0
5604827,Shaw's,121 Memorial Pkwy,Randolph,MA,02368,(781) 963-6995,42.16380453,-71.04548536,blue,30.0
5604822,Shaw's,125 Pearl St,Braintree,MA,02184,(781) 228-4406,42.20110486,-71.00025287,blue,30.0
5604825,Shaw's,125 Robert Toner Blvd,North Attleboro,MA,02763,(508) 643-2259,41.9706135,-71.30053234,blue,30.0
5604888,Shaw's,127 Eastern Ave,Gloucester,MA,01930,(978) 281-4844,42.62275989,-70.63986089,blue,30.0
5604872,Shaw's,127 Marion Rd,Wareham,MA,02571,(508) 295-7813,41.75965857,-70.72877582,blue,30.0
5604918,Shaw's,127 Vt Hwy 12s,Randolph,VT,05060,(802) 728-3584,43.91194456,-72.66314197,red,30.0
5604835,Shaw's,130 River St,Waltham,MA,02453,(781) 647-5341,42.36910201,-71.22130483,blue,30.0
5604903,Shaw's,1328 Hooksett Rd,Hooksett,NH,03106,(603) 623-8846,43.05572406,-71.44268094,blue,30.0
5604886,Shaw's,134 Nahatan St,Norwood,MA,02062,(781) 762-0610,42.19138094,-71.19566089,blue,30.0
5604890,Shaw's,134 Water St,Wakefield,MA,01880,(781) 245-0032,42.50327578,-71.06401967,blue,30.0
5604915,Shaw's,135 Dublin Rd,Peterborough,NH,03458,(603) 924-9192,42.87611484,-71.96249926,red,30.0
5604908,Shaw's,1364 Congress St,Portland,ME,04102,(207) 774-7661,43.65750724,-70.29770462,red,30.0
5604912,Shaw's,1364 Main St,Sanford,ME,04073,(207) 490-5309,43.41369138,-70.74410951,blue,30.0
5604923,Shaw's,137 Tea Ticket Hwy,East Falmouth,MA,02536,(508) 548-4033,41.56190195,-70.59388988,blue,30.0
5604867,Shaw's,1377 Hyde Park Ave,Hyde Park,MA,02136,(617) 364-9375,42.25178815,-71.12608977,red,30.0
5604932,Shaw's,14 W Boylston St,Worcester,MA,01605,(508) 852-5833,42.288573,-71.80651406,blue,30.0
5604821,Shaw's,1400 Lakeshore Dr,Gilford,NH,03249,(603) 528-2929,43.56441883,-71.44743362,red,30.0
5604913,Shaw's,146 High St,Ipswich,MA,01938,(978) 356-8451,42.68993159,-70.85331755,red,30.0
5604935,Shaw's,147 Bath Rd,Brunswick,ME,04011,(207) 721-9996,43.9079556,-69.92546089,blue,30.0
5604859,Shaw's,15 Forest St,Woodsville,NH,03785,(603) 747-3461,44.14451482,-72.02908359,blue,30.0
5604900,Shaw's,15 Smithfield Rd,North Providence,RI,02904,(401) 353-2075,41.85628493,-71.44735387,blue,30.0
5604928,Shaw's,15 State Rd,Dartmouth,MA,02747,(508) 993-9995,41.636152,-70.961469,blue,30.0
5604865,Shaw's,150 Western Ave,Augusta,ME,04330,(207) 623-4520,44.31159057,-69.79479577,red,30.0
5604868,Shaw's,155 Great Rd,Stow,MA,01775,(978) 897-5140,42.43479084,-71.486983,blue,30.0
5604844,Shaw's,160 Old Tower Hill Rd,Wakefield,RI,02879,(401) 792-9888,41.44369172,-71.48188002,red,30.0
5604927,Shaw's,160 Paine Turnpike N,Berlin,VT,05602,(802) 223-2652,44.2110308,-72.57286718,blue,30.0
5604921,Shaw's,175 High St,Ellsworth,ME,04605,(207) 667-2293,44.53463561,-68.41313928,red,30.0
5604847,Shaw's,178 Main St,Sturbridge,MA,01566,(508) 347-3003,42.09785771,-72.07104323,red,30.0
5604963,Shaw's,18 Sisson Rd,Harwich Port,MA,02646,(508) 432-3433,41.6731101,-70.09327794,blue,30.0
5604917,Shaw's,180 A Cambridge St,Burlington,MA,01803,(781) 221-3002,42.51143259,-71.19837977,blue,30.0
5604883,Shaw's,180 Waterman Dr,South Portland,ME,04106,(207) 799-8149,43.63685296,-70.25417175,blue,30.0
5604833,Shaw's,186 County Rd,Barrington,RI,02806,(401) 245-5882,41.73667023,-71.30683528,blue,30.0
5604858,Shaw's,199 Main St,Lancaster,NH,03584,(603) 788-4065,44.49639963,-71.57349883,blue,30.0
5604817,Shaw's,2 Main St,Montpelier,VT,05602,(802) 223-7587,44.2588555,-72.57750815,red,30.0
5604924,Shaw's,200 Lower Main St,Freeport,ME,04032,(207) 865-0094,43.84511682,-70.11832587,red,30.0
8197347,Shaw's,201 Washington St,Hudson,MA,01749,(978) 562-4549,42.3805146,-71.5693358,red,30.0
5604880,Shaw's,213 Daniel Webster Hwy,Nashua,NH,03060,(603) 891-1649,42.71080901,-71.44580244,blue,30.0
5604856,Shaw's,213 Main St,Ludlow,VT,05149,(802) 228-8468,43.39697119,-72.70370988,blue,30.0
5604869,Shaw's,2260 State Rd,Plymouth,MA,02360,(508) 833-2975,41.82095731,-70.550393,blue,30.0
5604826,Shaw's,230 Main St,Medfield,MA,02052,(508) 359-8713,42.19430399,-71.28781406,blue,30.0
5604884,Shaw's,235 Camden St,Rockland,ME,04841,(207) 594-8615,44.12401017,-69.09738421,red,30.0
5604816,Shaw's,246 Border St,East Boston,MA,02128,(617) 567-4116,42.3765938,-71.0403646,blue,30.0
5604885,Shaw's,251 Kennedy Memorial Dr,Waterville,ME,04901,(207) 873-6224,44.54459915,-69.66719739,blue,30.0
5604914,Shaw's,251 Us Hwy 1,Falmouth,ME,04105,(207) 781-6581,43.72370907,-70.23017284,blue,30.0
5604887,Shaw's,255 E Central St,Franklin,MA,02038,(508) 520-6880,42.08138988,-71.38670623,blue,30.0
5604911,Shaw's,27 E Ave,Lewiston,ME,04240,(207) 784-6900,44.08619535,-70.19991964,red,30.0
5604873,Shaw's,27 Mad River Canoe Rd,Waitsfield,VT,05673,(802) 496-5330,44.18539986,-72.83820447,blue,30.0
5604906,Shaw's,276 W Main St,Hillsborough,NH,03244,(603) 464-5110,43.10999011,-71.91555314,blue,30.0
5604814,Shaw's,300 Main St,Nashua,NH,03060,(603) 579-6966,42.75386079,-71.45929485,blue,30.0
5604829,Shaw's,300 New State Hwy,Raynham,MA,02767,(508) 822-5660,41.90677837,-71.05389716,blue,30.0
5604828,Shaw's,301 Pond St,Ashland,MA,01721,(508) 881-5125,42.24115002,-71.43308306,blue,30.0
5604882,Shaw's,32 Ames Plaza Ln #441,Walpole,NH,03608,(603) 756-3771,43.10561044,-72.42610183,blue,30.0
5604899,Shaw's,320 Warwick Ave,Warwick,RI,02888,(401) 941-4553,41.76724408,-71.40417667,blue,30.0
5604905,Shaw's,33 Lafayette Rd Unit 4,North Hampton,NH,03862,(603) 964-4662,42.96758249,-70.83308562,blue,30.0
5604879,Shaw's,34 Essex St,Melrose,MA,02176,(781) 665-8512,42.4563726,-71.06575616,blue,30.0
5604897,Shaw's,35 Columbia Rd,Hanover,MA,02339,(781) 826-2864,42.1173514,-70.8236087,blue,30.0
5604910,Shaw's,353 Main St,Bangor,ME,04401,(207) 942-9441,44.79422815,-68.77616588,red,30.0
5604901,Shaw's,368 Southbridge St,Auburn,MA,01501,(508) 832-0440,42.20593799,-71.83788015,blue,30.0
5604896,Shaw's,390 West St,Mansfield,MA,02048,(508) 339-3987,42.02558719,-71.2329323,blue,30.0
5604891,Shaw's,4 Plaistow Rd,Plaistow,NH,03865,(603) 382-0489,42.81623757,-71.10587029,blue,30.0
5604871,Shaw's,4 Scammon St Suite 10,Saco,ME,04072,(207) 284-9666,43.50254956,-70.44926388,blue,30.0
5604824,Shaw's,4171 N Main St,Fall River,MA,02720,(508) 677-0940,41.75083277,-71.12097798,red,30.0
5604941,Shaw's,43 Indian Rock Rd,Windham,NH,03087,(603) 432-2607,42.80796696,-71.29014071,blue,30.0
5604925,Shaw's,4340 Us Rt 5,Derby,VT,05829,(802) 334-8466,44.95382501,-72.15468407,red,30.0
5604852,Shaw's,45 Storey Ave,Newburyport,MA,01950,(978) 462-7121,42.8202845,-70.90442276,blue,30.0
5604823,Shaw's,476 Liberty St,Hanson,MA,02341,(781) 293-3008,42.06633367,-70.87263644,blue,30.0
5604907,Shaw's,48 John Stark Hwy,Newport,NH,03773,(603) 863-4173,43.35764994,-72.17590847,blue,30.0
5604846,Shaw's,50 Boston Turnpike Rd,Shrewsbury,MA,01545,(508) 797-1126,42.2718051,-71.75253225,blue,30.0
5604866,Shaw's,509 Boston Post Rd,Sudbury,MA,01776,(978) 443-7066,42.35893549,-71.42956361,blue,30.0
5604877,Shaw's,55 Crystal Ave,Derry,NH,03038,(603) 432-9592,42.89142151,-71.32350104,blue,30.0
5604819,Shaw's,55 Depot St,Poultney,VT,05764,(802) 287-4387,43.51796737,-73.23742172,blue,30.0
5604878,Shaw's,570 Daniel Webster Hwy,Merrimack,NH,03054,(603) 424-3759,42.88176001,-71.4810699,blue,30.0
5604815,Shaw's,570 Shelburne Rd,Burlington,VT,05401,(802) 860-2255,44.44969123,-73.20698425,red,30.0
5604892,Shaw's,585 Taunton Ave,East Providence,RI,02914,(401) 434-0029,41.82053055,-71.35885656,blue,30.0
5604853,Shaw's,586 Nashua St,Milford,NH,03055,(603) 672-3336,42.8250861,-71.62509246,red,30.0
5604864,Shaw's,600 Center St,Auburn,ME,04210,(207) 784-6971,44.12367575,-70.22702923,blue,30.0
5604875,Shaw's,610 Middle St,Weymouth,MA,02189,(781) 331-5108,42.20275852,-70.94300956,blue,30.0
5604870,Shaw's,625 Meadow St,Littleton,NH,03561,(603) 444-1017,44.30304581,-71.80160947,red,30.0
5604962,Shaw's,625 W Main St,Hyannis,MA,02601,(508) 775-3421,41.65174707,-70.31865391,blue,30.0
5604919,Shaw's,64 Equinox Terrace,Manchester Center,VT,05255,(802) 362-4447,43.172048,-73.061448,red,30.0
5604830,Shaw's,641 Belmont St,Brockton,MA,02301,(508) 588-7746,42.07219447,-71.04577839,blue,30.0
5604831,Shaw's,65 Main St,Medway,MA,02053,(508) 533-0606,42.15208047,-71.40325305,blue,30.0
5604926,Shaw's,66 Mountain View,Colchester,VT,05446,(802) 654-7803,44.50905924,-73.1809238,blue,30.0
5604837,Shaw's,670 Bath Rd,Wiscasset,ME,04578,(207) 882-8424,43.97312115,-69.70924634,blue,30.0
5604930,Shaw's,68 Stafford St,Worcester,MA,01603,(508) 755-5808,42.24183209,-71.84192387,blue,30.0
5604843,Shaw's,690 Depot St,North Easton,MA,02356,(508) 238-0165,42.0242698,-71.1164429,blue,30.0
5604940,Shaw's,7 Continental Blvd,Merrimack,NH,03054,(603) 429-0714,42.83698331,-71.49887904,blue,30.0
5604881,Shaw's,7 Prince Ln,Bristol,VT,05443,(802) 453-4865,44.1337299,-73.076988,blue,30.0
5604855,Shaw's,71 Boxwood St,Williston,VT,05495,(802) 878-9770,44.44687644,-73.10834751,blue,30.0
5604904,Shaw's,71 Dodge St,Beverly,MA,01915,(978) 232-9104,42.57710184,-70.88843245,blue,30.0
5604834,Shaw's,71 E Main Rd,Middletown,RI,02842,(401) 848-7560,41.5172783,-71.29655689,blue,30.0
5604898,Shaw's,715 Crescent St,Brockton,MA,02302,(508) 583-2581,42.07862714,-70.99091101,blue,30.0
5604845,Shaw's,739 Chief Justice Cushing Hwy,Cohasset,MA,02025,(781) 383-2315,42.22203293,-70.80516866,blue,30.0
5604841,Shaw's,751 Maple St,Stowe,VT,05672,(802) 253-4793,44.47159975,-72.67435927,blue,30.0
5604934,Shaw's,760 A Boston Rd,Groton,MA,01450,(978) 448-0419,42.57988043,-71.52396228,blue,30.0
5604861,Shaw's,770 Roosevelt Trail,Windham,ME,04062,(207) 892-5159,43.83551863,-70.44409126,blue,30.0
5604894,Shaw's,780 S Main St,Sharon,MA,02067,(781) 784-5995,42.09444224,-71.21961802,blue,30.0
5604933,Shaw's,8 Chapel View Blvd,Cranston,RI,02920,(401) 464-8388,41.75462115,-71.46093305,blue,30.0
5604818,Shaw's,8 Washington St,Middlebury,VT,05753,(802) 388-0930,44.01438977,-73.16354619,blue,30.0
5604857,Shaw's,82 Springfield Plaza Rd,Springfield,VT,05156,(802) 885-8450,43.30249378,-72.4924243,red,30.0
5604937,Shaw's,820 Waterbury Stowe Rd,Waterbury,VT,05676,(802) 241-4113,44.3477186,-72.74366699,blue,30.0
5604850,Shaw's,851 Central Ave,Dover,NH,03820,(603) 749-5389,43.21812196,-70.87973624,red,30.0
5604942,Shaw's,9 West Rd,Orleans,MA,02653,(508) 240-1021,41.77969201,-70.00252867,blue,30.0
5604862,Shaw's,91 Auburn St,Portland,ME,04103,(207) 797-4304,43.7024156,-70.28802721,blue,30.0
5604939,Shaw's,93 Prospect St,Milford,MA,01757,(508) 478-4519,42.13888689,-71.53346084,blue,30.0
5604895,Shaw's,95 Washington St,Canton,MA,02021,(781) 828-1446,42.1401504,-71.14476272,blue,30.0
5604839,Shaw's,96 Daniel Webster Hwy,Belmont,NH,03220,(603) 524-3941,43.51519057,-71.49269661,blue,30.0
5604840,Shaw's,97 E Main St,Wilmington,VT,05363,(802) 464-2161,42.86448535,-72.8630866,red,30.0
5604993,Tom Thumb,100 W Southlake Blvd,Southlake,TX,76092,(817) 416-5464,32.94342142,-97.15211587,blue,30.0
5604970,Tom Thumb,1000 Keller Pkwy,Keller,TX,76248,(817) 337-8030,32.93231195,-97.22796656,blue,30.0
5604977,Tom Thumb,101 Trophy Lake Dr,Trophy Club,TX,76262,(817) 490-6960,32.9999501,-97.20509721,blue,30.0
5604985,Tom Thumb,10455 N Central Expwy,Dallas,TX,75231,(214) 369-9694,32.88895914,-96.77175516,blue,30.0
5604971,Tom Thumb,106 N Denton Tap Rd,Coppell,TX,75019,(972) 304-3223,32.97061917,-96.99186562,blue,30.0
5604974,Tom Thumb,1075 W Fm3040,Lewisville,TX,75067,(214) 488-3060,33.006857,-97.016937,blue,30.0
1044316068,Tom Thumb,11401 Coit Rd,Frisco,TX,75035,(469) 237-3888,33.171769,-96.769546,blue,30.0
5605016,Tom Thumb,11920 Preston Rd,Dallas,TX,75230,(972) 392-2501,32.91125418,-96.80217279,blue,30.0
5605024,Tom Thumb,1380 W Campbell Rd,Richardson,TX,75080,(972) 680-6010,32.98009681,-96.76688243,blue,30.0
5605000,Tom Thumb,14280 Marsh Ln,Addison,TX,75001,(972) 241-4485,32.93861105,-96.85358265,blue,30.0
5605027,Tom Thumb,14999 Preston Rd,Dallas,TX,75254,(972) 789-6950,32.95232028,-96.80584624,blue,30.0
5604973,Tom Thumb,1501 Pioneer Rd,Mesquite,TX,75149,(972) 290-3350,32.74610396,-96.58632651,blue,30.0
5605001,Tom Thumb,1701 Randol Mill Rd,Arlington,TX,76012,(817) 460-8551,32.75084308,-97.1337185,blue,30.0
5605015,Tom Thumb,18212 Preston Rd,Dallas,TX,75252,(972) 985-2240,32.99985677,-96.79368356,blue,30.0
1080520892,Tom Thumb,1940 N Hwy 77,Waxahachie,TX,75165,(945) 542-3060,32.4350043,-96.8351014,blue,30.0
5604987,Tom Thumb,206 N Grand Ave,Gainesville,TX,76240,(940) 665-0311,33.62549012,-97.13255972,red,30.0
5605022,Tom Thumb,210 E Pleasant Run Rd,Desoto,TX,75115,(972) 274-7000,32.60289436,-96.85564494,blue,30.0
5605013,Tom Thumb,2301 Justin Rd,Flower Mound,TX,75028,(972) 539-2366,33.07163691,-97.06392775,blue,30.0
12336127,Tom Thumb,2380 Field St,Dallas,TX,75201,(972) 454-5045,32.788995,-96.806411,blue,30.0
5605005,Tom Thumb,2400 W 7th St,Fort Worth,TX,76107,(817) 302-1400,32.75149253,-97.35130191,blue,30.0
5604992,Tom Thumb,2535 Firewheel Pkwy,Garland,TX,75040,(972) 675-8661,32.93747918,-96.60552995,blue,30.0
5605019,Tom Thumb,2611 W Park Row Dr,Arlington,TX,76013,(817) 462-0151,32.72279316,-97.15035469,blue,30.0
5604972,Tom Thumb,2645 Arapaho Rd,Garland,TX,75044,(972) 495-9807,32.96066792,-96.66700786,blue,30.0
18548718,Tom Thumb,2727 Live Oak St,Dallas,TX,75204,(214) 273-2115,32.78928,-96.789361,blue,30.0
5605029,Tom Thumb,2755 N Collins St,Arlington,TX,76006,(817) 276-5360,32.7833216,-97.09336326,blue,30.0
5918920,Tom Thumb,3001 Hardin Blvd,Mckinney,TX,75070,(469) 678-3677,33.16715717,-96.6632794,blue,30.0
5605023,Tom Thumb,302 S Park Blvd,Grapevine,TX,76051,(817) 481-5669,32.93887273,-97.09716294,blue,30.0
5605003,Tom Thumb,3070 N Goliad St,Rockwall,TX,75087,(972) 961-9330,32.96455064,-96.46244198,blue,30.0
5604986,Tom Thumb,3100 Independence Pkwy,Plano,TX,75075,(972) 596-4420,33.03904349,-96.75231082,blue,30.0
5604991,Tom Thumb,3100 S Hulen St,Fort Worth,TX,76109,(817) 570-2950,32.70606639,-97.39003301,blue,30.0
5605018,Tom Thumb,315 S Hampton Rd,Dallas,TX,75208,(214) 331-0160,32.74262555,-96.85840953,blue,30.0
5605025,Tom Thumb,3411 Custer Pkwy,Richardson,TX,75080,(972) 470-1360,32.99877122,-96.73066556,blue,30.0
5604969,Tom Thumb,3757 Forest Ln,Dallas,TX,75244,(972) 241-4426,32.91077591,-96.85301319,blue,30.0
5605009,Tom Thumb,3878 Oaklawn Ave #18,Dallas,TX,75219,(972) 560-0233,32.815563,-96.800832,blue,30.0
5604997,Tom Thumb,3945 Legacy Dr,Plano,TX,75023,(972) 491-2200,33.07406932,-96.77062226,blue,30.0
5603510,Tom Thumb,4000 Glade Rd,Colleyville,TX,76034,(817) 354-0505,32.882335,-97.101203,blue,30.0
5604982,Tom Thumb,4001 Villanova St,Dallas,TX,75225,(214) 368-8636,32.86365469,-96.80215431,blue,30.0
5605020,Tom Thumb,4010 N Macarthur Blvd,Irving,TX,75038,(972) 717-9727,32.85980213,-96.95729727,red,30.0
5604996,Tom Thumb,4112 N Josey Ln,Carrollton,TX,75007,(972) 394-4127,33.02355029,-96.88337579,blue,30.0
5604975,Tom Thumb,4215 S Carrier Pkwy,Grand Prairie,TX,75052,(972) 266-7050,32.67122647,-97.00347053,blue,30.0
5604978,Tom Thumb,4301 Cross Timbers Rd,Flower Mound,TX,75028,(972) 691-2084,33.03980278,-97.09754851,blue,30.0
1075963513,Tom Thumb,435 S Fm 548,Forney,TX,75126,(972) 357-3255,32.7336015,-96.4543741,blue,30.0
5603410,Tom Thumb,4625 Frankford Rd,Dallas,TX,75287,(972) 732-6291,32.99941691,-96.82746619,blue,30.0
5604994,Tom Thumb,4848 Preston Rd,Frisco,TX,75034,(972) 377-1800,33.11896026,-96.80363774,blue,30.0
5605006,Tom Thumb,522 Royal Ln,Dallas,TX,75230,(214) 363-7685,32.89635572,-96.80491515,blue,30.0
14178411,Tom Thumb,551 Laurence Dr,Rockwall,TX,75032,(469) 651-6368,32.841521,-96.472841,blue,30.0
5605002,Tom Thumb,5550 Fm 423,Frisco,TX,75036,(214) 494-6213,33.12551221,-96.88886278,blue,30.0
5604999,Tom Thumb,5809 E Lovers Ln,Dallas,TX,75206,(214) 750-3200,32.85213089,-96.76706261,blue,30.0
5604990,Tom Thumb,5968 W Parker Rd,Plano,TX,75093,(972) 473-3300,33.0429881,-96.82860844,blue,30.0
5604998,Tom Thumb,612 Grapevine Hwy,Hurst,TX,76054,(817) 428-0383,32.86403572,-97.17953177,blue,30.0
5605008,Tom Thumb,633 W Wheatland Rd,Duncanville,TX,75116,(972) 780-0792,32.6482418,-96.92284805,blue,30.0
5604984,Tom Thumb,6333 E Mockingbird Ln,Dallas,TX,75214,(214) 824-1265,32.83779793,-96.75453974,blue,30.0
5605021,Tom Thumb,6377 Camp Bowie Blvd,Fort Worth,TX,76116,(817) 377-5980,32.72509148,-97.42018607,blue,30.0
5603287,Tom Thumb,6800 W Virginia Pkwy,Mckinney,TX,75071,(972) 542-8083,33.20052175,-96.70655318,blue,30.0
5604981,Tom Thumb,7000 Snider Plaza,Dallas,TX,75205,(214) 346-4580,32.85048305,-96.7872538,blue,30.0
5605004,Tom Thumb,7117 Inwood Rd,Dallas,TX,75209,(214) 350-3883,32.84450148,-96.82260163,blue,30.0
5605010,Tom Thumb,7331 Gaston Ave,Dallas,TX,75214,(972) 201-2500,32.81330104,-96.72995856,blue,30.0
5605028,Tom Thumb,745 Cross Timbers Rd,Flower Mound,TX,75028,(972) 539-6828,33.04111264,-97.03801017,blue,30.0
5605017,Tom Thumb,7700 Northwest Hwy,Dallas,TX,75225,(214) 346-1020,32.86421159,-96.77508187,blue,30.0
5604976,Tom Thumb,7801 Alma Dr,Plano,TX,75025,(972) 527-0961,33.08318736,-96.71383638,blue,30.0
5604983,Tom Thumb,819 Arapaho Rd,Richardson,TX,75080,(972) 235-3917,32.96135713,-96.74986331,blue,30.0
5605007,Tom Thumb,8698 Skillman St,Dallas,TX,75243,(214) 340-1266,32.89613962,-96.7204436,blue,30.0
5604979,Tom Thumb,8805 Lakeview Pkwy,Rowlett,TX,75088,(214) 607-0218,32.92048666,-96.51635036,blue,30.0
5605030,Tom Thumb,921 Westgate Way,Wylie,TX,75098,(972) 429-7840,33.00643275,-96.55208191,blue,30.0
5604989,Tom Thumb,925 Northwest Hwy,Garland,TX,75041,(972) 271-0582,32.862898,-96.641681,blue,30.0
5604980,Tom Thumb,980 Hwy N 287,Mansfield,TX,76063,(817) 453-6770,32.5823526,-97.12885123,blue,30.0
5605196,Vons,1000 W El Norte Pkwy,Escondido,CA,92026,(760) 747-5920,33.14870863,-117.1063788,blue,30.0
5605280,Vons,10016 Scripps Ranch Blvd,San Diego,CA,92131,(858) 271-5350,32.90309678,-117.1004555,blue,30.0
5605268,Vons,10321 Sepulveda Blvd,Mission Hills,CA,91345,(818) 891-1352,34.25784479,-118.4683675,blue,30.0
5605151,Vons,10460 Clairemont Mesa Blvd,San Diego,CA,92124,(858) 560-4565,32.83052464,-117.1041702,blue,30.0
5605135,Vons,10675 Scripps Poway Pkwy,San Diego,CA,92131,(858) 693-0638,32.93539466,-117.0983909,blue,30.0
5605221,Vons,1125 Maricopa Hwy,Ojai,CA,93023,(805) 646-4669,34.44139471,-119.2625202,blue,30.0
5605214,Vons,1131 E Tropicana Ave,Las Vegas,NV,89119,(702) 798-8697,36.10000652,-115.1377886,blue,30.0
5605183,Vons,11322 Los Alamitos Blvd,Los Alamitos,CA,90720,(562) 493-3567,33.79787239,-118.0706982,blue,30.0
5605131,Vons,115 W Main St,Ventura,CA,93001,(805) 653-6874,34.28235326,-119.3023305,blue,30.0
5605101,Vons,1155 E Twain Ave,Las Vegas,NV,89169,(702) 696-0906,36.1207922,-115.1387351,blue,30.0
5605148,Vons,1160 Via Verde Ave,San Dimas,CA,91773,(909) 592-3261,34.07259947,-117.8290444,blue,30.0
5605250,Vons,11800 De Palma Rd,Temescal Valley,CA,92883,(951) 603-0809,33.747534,-117.453028,blue,30.0
5605114,Vons,11861 Valley View St,Garden Grove,CA,92845,(714) 889-9955,33.79021428,-118.0291362,blue,30.0
5605090,Vons,1190 N Main St,Bishop,CA,93514,(760) 872-9811,37.373479,-118.392735,red,30.0
5605124,Vons,11986 Bernardo Plaza Dr,San Diego,CA,92128,(858) 487-8221,33.02095152,-117.0721994,blue,30.0
5605258,Vons,1201 Avocado Blvd,El Cajon,CA,92020,(619) 440-0881,32.77887393,-116.9563359,blue,30.0
5605136,Vons,1212 Beryl St,Redondo Beach,CA,90277,(310) 374-7987,33.85394432,-118.3802568,blue,30.0
5605150,Vons,12199 Hesperia Rd,Victorville,CA,92395,(760) 241-2288,34.47268483,-117.2897718,blue,30.0
5605182,Vons,1221 S Gaffey St,San Pedro,CA,90731,(310) 832-7063,33.73291362,-118.2936268,blue,30.0
5605077,Vons,1260 W Redondo Beach Blvd,Gardena,CA,90247,(310) 767-7920,33.89087388,-118.2979906,blue,30.0
5605251,Vons,1291 S Victoria Ave,Oxnard,CA,93035,(805) 984-0651,34.188382,-119.222123,blue,30.0
5605165,Vons,12961 W Chapman Ave,Garden Grove,CA,92840,(714) 750-3663,33.78968528,-117.9072056,blue,30.0
5603838,Vons,130 W Foothill Blvd,Monrovia,CA,91016,(626) 303-4547,34.1500524,-118.0019788,blue,30.0
5605191,Vons,130 W Lincoln,Anaheim,CA,92805,(714) 535-2288,33.83509911,-117.9145487,blue,30.0
5605105,Vons,1311 Wilshire Blvd,Santa Monica,CA,90403,(310) 394-1414,34.02650674,-118.4899058,blue,30.0
5605125,Vons,13255 Black Mountain Rd,San Diego,CA,92129,(858) 484-7234,32.95800344,-117.1249915,red,30.0
5605271,Vons,1342 N Alvarado St,Los Angeles,CA,90026,(213) 483-5573,34.07952855,-118.2612757,blue,30.0
5605111,Vons,13730 Foothill Blvd,Sylmar,CA,91342,(818) 367-1849,34.30834552,-118.4331657,blue,30.0
5605166,Vons,14200 Palm Dr,Desert Hot Springs,CA,92240,(760) 251-1636,33.94546963,-116.4999758,red,30.0
5605176,Vons,1430 S Fairfax Ave,Los Angeles,CA,90019,(323) 939-9335,34.05048657,-118.3662629,blue,30.0
5605160,Vons,1440 W 25th St,San Pedro,CA,90732,(310) 832-8459,33.72323292,-118.3107815,blue,30.0
5605157,Vons,155 California Blvd,Pasadena,CA,91105,(626) 577-7149,34.13674235,-118.153361,blue,30.0
5605107,Vons,15740 La Forge St,Whittier,CA,90603,(562) 943-0516,33.94095215,-117.9942955,blue,30.0
5605253,Vons,1600 Foothill Blvd,La Verne,CA,91750,(909) 593-2572,34.11459055,-117.7731413,blue,30.0
5605274,Vons,163 S Turnpike Rd,Santa Barbara,CA,93111,(805) 681-7474,34.437818,-119.790549,blue,30.0
5605092,Vons,1650 Herndon Ave,Clovis,CA,93611,(559) 297-6410,36.83574303,-119.6850553,red,30.0
5605266,Vons,16550 W Soledad Canyon Rd,Santa Clarita,CA,91387,(661) 252-3838,34.42556447,-118.4252992,blue,30.0
5605171,Vons,16830 San Fernando Mission Blvd,Granada Hills,CA,91344,(818) 831-8511,34.27085756,-118.4989033,blue,30.0
5605141,Vons,1702 Garnet Ave,San Diego,CA,92109,(858) 273-8340,32.80199906,-117.2388558,blue,30.0
5605175,Vons,17380 Sunset Blvd,Pacific Palisades,CA,90272,(310) 454-2502,34.03922298,-118.5539741,blue,30.0
5605252,Vons,1745 Eastlake Pkwy,Chula Vista,CA,91915,(619) 397-3467,32.61964945,-116.9609741,blue,30.0
5605232,Vons,1758 W Grand Ave,Grover Beach,CA,93433,(805) 481-0877,35.119804,-120.610254,blue,30.0
5605074,Vons,1790 Moorpark Rd,Thousand Oaks,CA,91360,(805) 497-1803,34.20141724,-118.8667446,blue,30.0
5605262,Vons,1820 Ximeno Ave,Long Beach,CA,90815,(562) 498-2111,33.79038676,-118.1372879,blue,30.0
5605120,Vons,18439 Ventura Blvd,Tarzana,CA,91356,(818) 881-5527,34.16906366,-118.5341906,blue,30.0
5605230,Vons,185 E 17th St,Costa Mesa,CA,92627,(949) 515-3444,33.63451973,-117.9202727,blue,30.0
5605226,Vons,1855 E Cochran St,Simi Valley,CA,93065,(805) 522-9394,34.2802947,-118.7629797,blue,30.0
5605112,Vons,19333 Victory Blvd,Reseda,CA,91335,(818) 881-7020,34.18760956,-118.5543699,blue,30.0
5605276,Vons,2010 Cliff Dr,Santa Barbara,CA,93109,(805) 966-5011,34.402323,-119.723242,blue,30.0
5605184,Vons,2039 Verdugo Blvd,Montrose,CA,91020,(818) 249-4595,34.2057349,-118.2215141,blue,30.0
5605080,Vons,20440 Devonshire St,Chatsworth,CA,91311,(818) 341-7151,34.25662813,-118.5786412,blue,30.0
5605260,Vons,20445 Yorba Linda Blvd,Yorba Linda,CA,92886,(714) 777-0781,33.89329697,-117.7756436,blue,30.0
5605128,Vons,2048 Avenida De Los Arboles,Thousand Oaks,CA,91362,(805) 492-2497,34.20989541,-118.8408905,blue,30.0
5605224,Vons,2101 N Rose Ave,Oxnard,CA,93036,(805) 981-1495,34.221902,-119.161166,red,30.0
5605264,Vons,2122 S Hacienda Blvd,Hacienda Heights,CA,91745,(626) 330-4216,33.99507186,-117.9670727,blue,30.0
5605121,Vons,2250 Otay Lakes Rd,Chula Vista,CA,91915,(619) 656-0406,32.64574126,-116.9665674,blue,30.0
5605159,Vons,2345 E Valley Pkwy,Escondido,CA,92027,(760) 489-5950,33.13918775,-117.044479,blue,30.0
5605254,Vons,2355 E Colorado Blvd,Pasadena,CA,91107,(626) 744-2615,34.14759975,-118.1021395,blue,30.0
11850037,Vons,240 Sumner Ave,Avalon,CA,90704,(424) 334-3221,33.342069,-118.327067,red,30.0
5605139,Vons,24160 Lyons Ave,Newhall,CA,91321,(661) 259-9214,34.37744354,-118.5571679,blue,30.0
5605278,Vons,24325 Crenshaw Blvd,Torrance,CA,90505,(310) 784-1020,33.80510485,-118.3304699,blue,30.0
5605222,Vons,2433 Harbor Blvd,Ventura,CA,93001,(805) 642-6761,34.26307652,-119.2701957,blue,30.0
5605179,Vons,245 Palos Verdes Blvd,Redondo Beach,CA,90277,(310) 378-7434,33.81635663,-118.385955,blue,30.0
5605248,Vons,2495 Truxtun Rd Bldg 28,San Diego,CA,92106,(619) 758-1725,32.73693987,-117.2162376,blue,30.0
5605094,Vons,2511 Anthem Village,Henderson,NV,89052,(702) 617-2505,35.97844113,-115.0999355,blue,30.0
5605154,Vons,2560 El Camino Real,Carlsbad,CA,92008,(760) 729-2771,33.17867197,-117.3246521,blue,30.0
5605109,Vons,25850 N The Old Rd,Stevenson Ranch,CA,91381,(661) 254-3570,34.390952,-118.572362,blue,30.0
5605197,Vons,2606 Del Mar Heights Rd,Del Mar,CA,92014,(858) 755-5304,32.95145209,-117.2464237,blue,30.0
5605155,Vons,262 N El Camino Real,Encinitas,CA,92024,(760) 942-4044,33.05123637,-117.2623434,blue,30.0
5605273,Vons,26518 Bouquet Canyon Rd,Saugus,CA,91350,(661) 296-0031,34.42695542,-118.5352772,blue,30.0
5605229,Vons,2667 E Windmill Pkwy,Henderson,NV,89074,(702) 361-0099,36.0415074,-115.1028293,blue,30.0
5605192,Vons,2684 N Tustin Ave,Orange,CA,92865,(714) 637-6651,33.83335786,-117.8373449,blue,30.0
5605087,Vons,2701 B Harbor Blvd,Costa Mesa,CA,92626,(714) 751-4270,33.67180552,-117.9203808,blue,30.0
5605212,Vons,27220 Sun City Blvd,Sun City,CA,92586,(951) 679-0127,33.71284603,-117.193109,blue,30.0
5605265,Vons,2725 Agoura Rd,Thousand Oaks,CA,91361,(805) 497-1921,34.15205262,-118.8259102,blue,30.0
5605242,Vons,2764 E Thompson Blvd,Ventura,CA,93003,(805) 648-0251,34.27122812,-119.2593354,blue,30.0
5603854,Vons,2938 Tapo Canyon Rd,Simi Valley,CA,93063,(805) 426-6021,34.28771083,-118.7153099,blue,30.0
5605100,Vons,29530 Rancho California Rd,Temecula,CA,92591,(951) 695-6773,33.50519883,-117.1476867,blue,30.0
5605263,Vons,301 N Pass Ave,Burbank,CA,91505,(818) 848-9542,34.15487543,-118.346552,blue,30.0
5605257,Vons,3027 Rancho Vista Blvd,Palmdale,CA,93551,(661) 265-9285,34.602926,-118.18428,blue,30.0
5605246,Vons,3100 Fowler Ave,Clovis,CA,93611,(559) 294-6720,36.795571,-119.684317,blue,30.0
5605172,Vons,311 W Los Feliz Blvd,Glendale,CA,91204,(818) 246-7161,34.12942983,-118.2586402,blue,30.0
5605122,Vons,3118 S Sepulveda Blvd,Los Angeles,CA,90034,(310) 477-8717,34.02663331,-118.4270011,blue,30.0
5605234,Vons,3233 Foothill Blvd,La Crescenta,CA,91214,(818) 658-1018,34.2311541,-118.250158,blue,30.0
5605127,Vons,32401 Camino Capistrano,San Juan Capistrano,CA,92675,(949) 661-7594,33.4926741,-117.6636191,blue,30.0
5605116,Vons,330 W El Norte Pkwy,Escondido,CA,92026,(760) 741-0928,33.14342507,-117.0940016,blue,30.0
5605095,Vons,33644 Yucaipa Blvd,Yucaipa,CA,92399,(909) 797-7052,34.03536824,-117.0700193,red,30.0
5605173,Vons,3461 W 3rd St,Los Angeles,CA,90020,(213) 384-6552,34.07001469,-118.2912374,blue,30.0
5605162,Vons,350 N Lemon Ave,Walnut,CA,91789,(909) 595-6465,34.01958778,-117.8639641,blue,30.0
5605195,Vons,351 W Felicita Ave,Escondido,CA,92025,(760) 743-8860,33.10307276,-117.0731607,blue,30.0
5605239,Vons,3520 Riverside Plaza,Riverside,CA,92506,(951) 342-7924,33.95472032,-117.3895497,blue,30.0
5605142,Vons,3550 Murphy Canyon Dr,San Diego,CA,92123,(858) 292-5007,32.80729239,-117.1165793,blue,30.0
5605201,Vons,3610 Adams Ave,San Diego,CA,92116,(619) 280-7634,32.76414134,-117.114662,blue,30.0
5605117,Vons,3645 Midway Dr,San Diego,CA,92110,(619) 222-6462,32.75115599,-117.2174503,blue,30.0
5605078,Vons,3650 S Bristol St,Santa Ana,CA,92704,(714) 540-0510,33.69831163,-117.8870237,blue,30.0
5605233,Vons,369 Magnolia Ave,Corona,CA,92879,(951) 549-1900,33.85452861,-117.5656588,blue,30.0
5605240,Vons,38995 Sky Canyon Dr,Murrieta,CA,92563,(951) 600-9583,33.55423366,-117.1385511,blue,30.0
5605186,Vons,3900 Broad St,San Luis Obispo,CA,93401,(805) 541-1055,35.250334,-120.642106,blue,30.0
5605181,Vons,3900 E Ocean Ave,Long Beach,CA,90803,(562) 987-3122,33.759803,-118.1471205,blue,30.0
5605206,Vons,3993 Governor Dr,San Diego,CA,92122,(858) 453-1883,32.85352452,-117.2032366,blue,30.0
5605076,Vons,4001 Inglewood Ave,Redondo Beach,CA,90278,(310) 349-0860,33.89291639,-118.3623571,blue,30.0
5605217,Vons,40044 Hwy 49,Oakhurst,CA,93644,(559) 642-4250,37.330782,-119.658627,red,30.0
5605177,Vons,4030 Centinela Ave,Los Angeles,CA,90066,(310) 391-1503,33.99915495,-118.4289707,blue,30.0
5605083,Vons,4033 Laurel Canyon Blvd,Studio City,CA,91604,(818) 985-5401,34.14454899,-118.3961464,blue,30.0
5605108,Vons,4033 W Ave L,Lancaster,CA,93536,(661) 722-7291,34.661303,-118.202396,blue,30.0
5605180,Vons,410 Manhattan Beach Blvd,Manhattan Beach,CA,90266,(310) 379-3051,33.88511163,-118.4078837,blue,30.0
5605200,Vons,4145 30th St,San Diego,CA,92104,(619) 284-6672,32.7531505,-117.1295389,blue,30.0
5605208,Vons,42170 Big Bear Blvd,Big Bear Lake,CA,92315,(909) 866-8459,34.25237876,-116.8851742,blue,30.0
5605079,Vons,4226 Woodruff Ave,Lakewood,CA,90713,(562) 496-4144,33.8350306,-118.1152121,blue,30.0
5605086,Vons,4241 Tierra Rejada Rd,Moorpark,CA,93021,(805) 530-3770,34.26766084,-118.8993021,blue,30.0
5605163,Vons,435 W Foothill Blvd,Glendora,CA,91741,(626) 963-2913,34.1374511,-117.8714868,blue,30.0
5605149,Vons,4404 Bonita Rd,Bonita,CA,91902,(619) 512-0125,32.65995436,-117.032321,blue,30.0
5605237,Vons,45 E Horizon Ridge Pkwy,Henderson,NV,89002,(702) 558-3966,36.00921371,-114.9936759,blue,30.0
5605098,Vons,450 S Ventura Rd,Oxnard,CA,93030,(805) 240-7911,34.19835925,-119.1934175,blue,30.0
5605110,Vons,4500 Coffee Rd,Bakersfield,CA,93308,(661) 589-0316,35.40012987,-119.0904963,blue,30.0
5605241,Vons,4520 Sunset Blvd,Los Angeles,CA,90027,(323) 662-8107,34.09706712,-118.2879829,blue,30.0
5605255,Vons,453 Santa Fe Dr,Encinitas,CA,92024,(760) 633-9770,33.03479346,-117.2827493,blue,30.0
5605096,Vons,4627 Carmel Mountain Rd,San Diego,CA,92130,(858) 523-1842,32.9203565,-117.2150572,blue,30.0
5605170,Vons,4705 Torrance Blvd,Torrance,CA,90503,(310) 371-1172,33.83828239,-118.3636408,blue,30.0
5605144,Vons,4725 Clairemont Dr,San Diego,CA,92117,(858) 483-4670,32.83009501,-117.2051658,blue,30.0
5605211,Vons,4733 E Palm Canyon Dr,Palm Springs,CA,92264,(760) 324-4502,33.79219219,-116.4945788,blue,30.0
5605213,Vons,475 E Windmill Ln,Las Vegas,NV,89123,(702) 896-7544,36.04131953,-115.1525077,blue,30.0
5605093,Vons,475 W Main St,Brawley,CA,92227,(760) 351-3002,32.97894047,-115.5503649,red,30.0
5605215,Vons,481 Old Mammoth Rd,Mammoth Lakes,CA,93546,(760) 934-4537,37.63866324,-118.9652591,red,30.0
5605227,Vons,500 E Manchester Blvd,Inglewood,CA,90301,(310) 677-0286,33.9602583,-118.3492184,blue,30.0
5605075,Vons,520 W Tefft St,Nipomo,CA,93444,(805) 931-1850,35.037485,-120.486841,blue,30.0
5605085,Vons,522 N Orange St,Redlands,CA,92374,(909) 793-0447,34.0600343,-117.1809882,blue,30.0
5605130,Vons,5275 Mission Oaks Blvd,Camarillo,CA,93012,(805) 482-7933,34.22969001,-118.9984748,blue,30.0
5605210,Vons,535 N Mckinley St,Corona,CA,92879,(951) 278-8012,33.89138419,-117.5201419,blue,30.0
5605158,Vons,550 E Baseline Rd,Claremont,CA,91711,(909) 621-4644,34.12064381,-117.7060851,blue,30.0
5605169,Vons,5500 Woodruff Ave,Lakewood,CA,90713,(562) 866-3781,33.85687909,-118.1154223,blue,30.0
5605113,Vons,5555 Balboa Ave,San Diego,CA,92111,(858) 279-4661,32.81846501,-117.1789827,blue,30.0
5605134,Vons,5600 Santa Ana Canyon Rd,Anaheim,CA,92807,(714) 998-3751,33.84972803,-117.7916435,blue,30.0
5605084,Vons,561 N Glendale Ave,Glendale,CA,91206,(818) 242-5926,34.15498552,-118.2448074,blue,30.0
5605218,Vons,5610 Lake Isabella Blvd,Lake Isabella,CA,93240,(760) 379-4461,35.6178365,-118.476086,red,30.0
5605275,Vons,5630 Lake Murray Blvd,La Mesa,CA,91942,(619) 589-0342,32.78243017,-117.0323933,blue,30.0
5605091,Vons,5638 E Kings Canyon,Fresno,CA,93727,(559) 458-0209,36.7345012,-119.6985205,blue,30.0
5605104,Vons,5671 Kanan Rd,Agoura,CA,91301,(818) 991-2857,34.15366256,-118.7592077,blue,30.0
5605161,Vons,5688 Telephone Rd,Ventura,CA,93003,(805) 644-1021,34.26434665,-119.215125,blue,30.0
5605102,Vons,5700 Stockdale Hwy,Bakersfield,CA,93309,(661) 328-6950,35.355829,-119.065028,blue,30.0
5605259,Vons,57590 29 Palms Hwy,Yucca Valley,CA,92284,(760) 365-8998,34.12689665,-116.4083406,blue,30.0
5605223,Vons,576 W Main St,Santa Paula,CA,93060,(805) 525-6356,34.3444267,-119.0813557,blue,30.0
5605115,Vons,5805 E Los Angeles Ave,Simi Valley,CA,93063,(805) 522-1193,34.273181,-118.677874,blue,30.0
5605126,Vons,5922 Edinger Ave,Huntington Beach,CA,92649,(714) 846-6356,33.72858192,-118.0248267,blue,30.0
5603839,Vons,5949 E Spring St,Long Beach,CA,90808,(562) 496-2151,33.811609,-118.115802,blue,30.0
5605256,Vons,600 E Broadway,Long Beach,CA,90802,(562) 491-1210,33.76917666,-118.1843316,blue,30.0
5605243,Vons,6040 Telegraph Rd,Ventura,CA,93003,(805) 650-2150,34.2767841,-119.2125464,blue,30.0
5605199,Vons,6155 El Cajon Blvd,San Diego,CA,92115,(619) 583-4142,32.76084179,-117.0649736,blue,30.0
5605245,Vons,6170 Hamner Ave,Mira Loma,CA,91752,(951) 360-1901,33.976485,-117.557755,blue,30.0
5605140,Vons,620 Dennery Rd,San Diego,CA,92154,(619) 428-3302,32.58306904,-117.0346524,blue,30.0
5605099,Vons,6351 Haven Ave,Rancho Cucamonga,CA,91737,(909) 980-4277,34.13870292,-117.574118,blue,30.0
5605225,Vons,636 Ventura St,Fillmore,CA,93015,(805) 524-1445,34.394937,-118.916289,blue,30.0
5605235,Vons,6450 Sky Pointe Dr,Las Vegas,NV,89131,(702) 515-1815,36.28030398,-115.2614718,blue,30.0
5605202,Vons,6555 Mission Gorge Rd,San Diego,CA,92120,(619) 284-1355,32.79238116,-117.096461,blue,30.0
5605281,Vons,6571 W 80th St,Los Angeles,CA,90045,(310) 641-9423,33.96936546,-118.4055303,blue,30.0
5605193,Vons,665 Saturn Blvd,San Diego,CA,92154,(619) 575-2200,32.58473271,-117.0901795,blue,30.0
5605119,Vons,6951 El Camino Real,Carlsbad,CA,92009,(760) 431-0157,33.10348773,-117.2686714,blue,30.0
5605187,Vons,7135 El Camino Real,Atascadero,CA,93422,(805) 466-4949,35.485803,-120.662022,red,30.0
5605238,Vons,7311 N Figueroa St,Los Angeles,CA,90041,(323) 254-5716,34.13598616,-118.1894287,blue,30.0
5605089,Vons,7390 Cherry Ave,Fontana,CA,92336,(909) 429-3928,34.1198418,-117.4904162,blue,30.0
5605236,Vons,7405 S Durango Dr,Las Vegas,NV,89113,(702) 263-4568,36.05386066,-115.2812705,blue,30.0
5605269,Vons,745 W Naomi Ave,Arcadia,CA,91007,(626) 446-9483,34.125131,-118.057337,blue,30.0
5605216,Vons,750 N Imperial Ave,El Centro,CA,92243,(760) 353-4603,32.7989158,-115.5717563,blue,30.0
5605146,Vons,777 Glendora Ave,West Covina,CA,91790,(626) 337-5615,34.06262476,-117.9323683,blue,30.0
5605106,Vons,7788 Regents Rd,San Diego,CA,92122,(858) 455-6130,32.86261241,-117.2234715,blue,30.0
5605147,Vons,7789 Foothill Blvd,Tujunga,CA,91042,(818) 353-4917,34.2592331,-118.3012681,blue,30.0
5605164,Vons,78-271 State Hwy 111,La Quinta,CA,92253,(760) 564-2001,33.71496654,-116.2983312,blue,30.0
5605272,Vons,7895 Highland Village Place,San Diego,CA,92129,(858) 780-9026,32.96096301,-117.1536437,blue,30.0
5603844,Vons,8010 E Santa Ana Canyon Rd,Anaheim Hills,CA,92808,(714) 282-7064,33.866938,-117.751456,blue,30.0
5605129,Vons,8011 University Ave,La Mesa,CA,91942,(619) 464-1011,32.7653452,-117.0241309,blue,30.0
5605270,Vons,804 Beverly Blvd,Montebello,CA,90640,(323) 722-1706,34.02028017,-118.1060393,blue,30.0
5605244,Vons,81 W Foothill Blvd,Upland,CA,91786,(909) 981-7709,34.10810872,-117.6528078,blue,30.0
5605185,Vons,817 E Main St,Santa Maria,CA,93454,(805) 922-0772,34.953539,-120.424038,blue,30.0
5605152,Vons,8310 Mira Mesa Blvd,San Diego,CA,92126,(858) 271-4830,32.91525835,-117.1447639,blue,30.0
5605203,Vons,845 College Blvd,Oceanside,CA,92057,(760) 630-4884,33.2407275,-117.2946147,blue,30.0
5605204,Vons,868 Orange Ave,Coronado,CA,92118,(619) 435-6811,32.68784349,-117.1792347,blue,30.0
5605156,Vons,8778 19th St,Rancho Cucamonga,CA,91701,(909) 989-1000,34.13367264,-117.6146152,blue,30.0
5605267,Vons,8891 Atlanta Ave,Huntington Beach,CA,92646,(714) 960-4747,33.65837901,-117.9731586,blue,30.0
5605167,Vons,8949 N Cedar Ave,Fresno,CA,93720,(559) 438-1403,36.864917,-119.758573,blue,30.0
5605220,Vons,9000 Ming Ave,Bakersfield,CA,93311,(661) 663-0595,35.342442,-119.101539,blue,30.0
5605123,Vons,9119 Reseda Blvd,Northridge,CA,91324,(818) 349-2494,34.23604907,-118.5377527,blue,30.0
5605190,Vons,931 Lomas Santa Fe Dr,Solana Beach,CA,92075,(858) 481-1008,32.99410924,-117.2546331,blue,30.0
5605118,Vons,932 E Badillo St,Covina,CA,91724,(626) 967-0072,34.08519086,-117.8714922,blue,30.0
1085518471,Vons,940 Arneill Rd,Camarillo,CA,93010,(805) 322-6220,34.226314,-119.037707,blue,30.0
5605097,Vons,9643 Mission Gorge Rd,Santee,CA,92071,(619) 596-5930,32.83728044,-116.9869803,blue,30.0
5605194,Vons,985 Tamarack Ave,Carlsbad,CA,92008,(760) 729-4722,33.15227935,-117.3339542,blue,30.0
5605132,Vons,9860 National Blvd,Los Angeles,CA,90034,(310) 836-4161,34.03026526,-118.4015738,blue,30.0
